<?xml version="1.0" encoding="UTF-8"?>
<gpx version="1.1" creator="Meenvazhi/1.0.0 (+https://github.com/TonyGregg/meenvazhi)"
     xmlns="http://www.topografix.com/GPX/1/1"
     xmlns:xsi="http://www.w3.org/2001/XMLSchema-instance"
     xsi:schemaLocation="http://www.topografix.com/GPX/1/1 http://www.topografix.com/GPX/1/1/gpx.xsd">
  <metadata>
    <name>Meenvazhi PFZ 2026-09-29</name>
    <desc>INCOIS Potential Fishing Zone advisory. valid until 2026-09-30. Advisory only. Not for navigation or safety of life at sea. Source: INCOIS, Ministry of Earth Sciences, Govt. of India</desc>
    <time>2026-09-29T10:58:50Z</time>
  </metadata>
  <wpt lat="8.940000" lon="78.321944">
    <time>2026-09-29T10:58:50Z</time>
    <name>TS26</name>
    <cmt>Pattanamarudur 136nmi 116T d7-12m</cmt>
    <desc>SOUTH TAMILNADU / Pattanamarudur. 135.9 nmi at 116 deg true from home port. Depth 7-12 m. Valid until 2026-09-30.</desc>
    <sym>Fish</sym>
    <type>PFZ</type>
  </wpt>
  <wpt lat="8.888333" lon="78.293889">
    <time>2026-09-29T10:58:50Z</time>
    <name>TS30</name>
    <cmt>Veppalodai 136nmi 117T d7-12m</cmt>
    <desc>SOUTH TAMILNADU / Veppalodai. 135.9 nmi at 117 deg true from home port. Depth 7-12 m. Valid until 2026-09-30.</desc>
    <sym>Fish</sym>
    <type>PFZ</type>
  </wpt>
  <wpt lat="8.922500" lon="78.313333">
    <time>2026-09-29T10:58:50Z</time>
    <name>TS28</name>
    <cmt>Keezhavaippar 136nmi 116T d9-14m</cmt>
    <desc>SOUTH TAMILNADU / Keezhavaippar. 136.0 nmi at 116 deg true from home port. Depth 9-14 m. Valid until 2026-09-30.</desc>
    <sym>Fish</sym>
    <type>PFZ</type>
  </wpt>
  <wpt lat="8.904167" lon="78.305556">
    <time>2026-09-29T10:58:50Z</time>
    <name>TS29</name>
    <cmt>Sippikulam 136nmi 117T d8-13m</cmt>
    <desc>SOUTH TAMILNADU / Sippikulam. 136.0 nmi at 117 deg true from home port. Depth 8-13 m. Valid until 2026-09-30.</desc>
    <sym>Fish</sym>
    <type>PFZ</type>
  </wpt>
  <wpt lat="8.944167" lon="78.340556">
    <time>2026-09-29T10:58:50Z</time>
    <name>TS24</name>
    <cmt>Valangapuri 137nmi 116T d4-9m</cmt>
    <desc>SOUTH TAMILNADU / Valangapuri. 136.8 nmi at 116 deg true from home port. Depth 4-9 m. Valid until 2026-09-30.</desc>
    <sym>Fish</sym>
    <type>PFZ</type>
  </wpt>
  <wpt lat="8.945833" lon="78.360000">
    <time>2026-09-29T10:58:50Z</time>
    <name>TS23</name>
    <cmt>Pudhuvalasaichathiram 138nmi 115T d7-12m</cmt>
    <desc>SOUTH TAMILNADU / Pudhuvalasaichathiram. 137.8 nmi at 115 deg true from home port. Depth 7-12 m. Valid until 2026-09-30.</desc>
    <sym>Fish</sym>
    <type>PFZ</type>
  </wpt>
  <wpt lat="8.794722" lon="78.293056">
    <time>2026-09-29T10:58:50Z</time>
    <name>TS31</name>
    <cmt>Alagankulam 138nmi 119T d12-17m</cmt>
    <desc>SOUTH TAMILNADU / Alagankulam. 138.5 nmi at 119 deg true from home port. Depth 12-17 m. Valid until 2026-09-30.</desc>
    <sym>Fish</sym>
    <type>PFZ</type>
  </wpt>
  <wpt lat="7.796111" lon="77.157222">
    <time>2026-09-29T10:58:50Z</time>
    <name>TS61</name>
    <cmt>Melamuttom 138nmi 157T d53-58m</cmt>
    <desc>SOUTH TAMILNADU / Melamuttom. 138.5 nmi at 157 deg true from home port. Depth 53-58 m. Valid until 2026-09-30.</desc>
    <sym>Fish</sym>
    <type>PFZ</type>
  </wpt>
  <wpt lat="8.953611" lon="78.378056">
    <time>2026-09-29T10:58:50Z</time>
    <name>TS18</name>
    <cmt>Palanivalasai 139nmi 115T d7-12m</cmt>
    <desc>SOUTH TAMILNADU / Palanivalasai. 138.6 nmi at 115 deg true from home port. Depth 7-12 m. Valid until 2026-09-30.</desc>
    <sym>Fish</sym>
    <type>PFZ</type>
  </wpt>
  <wpt lat="8.776389" lon="78.285833">
    <time>2026-09-29T10:58:50Z</time>
    <name>TS32</name>
    <cmt>Kudangulam 139nmi 120T d13-18m</cmt>
    <desc>SOUTH TAMILNADU / Kudangulam. 138.7 nmi at 120 deg true from home port. Depth 13-18 m. Valid until 2026-09-30.</desc>
    <sym>Fish</sym>
    <type>PFZ</type>
  </wpt>
  <wpt lat="8.758611" lon="78.276944">
    <time>2026-09-29T10:58:50Z</time>
    <name>TS33</name>
    <cmt>Idinthakarai 139nmi 120T d13-18m</cmt>
    <desc>SOUTH TAMILNADU / Idinthakarai. 138.7 nmi at 120 deg true from home port. Depth 13-18 m. Valid until 2026-09-30.</desc>
    <sym>Fish</sym>
    <type>PFZ</type>
  </wpt>
  <wpt lat="8.965833" lon="78.393611">
    <time>2026-09-29T10:58:50Z</time>
    <name>TS16</name>
    <cmt>Panaikulam 139nmi 114T d5-10m</cmt>
    <desc>SOUTH TAMILNADU / Panaikulam. 139.1 nmi at 114 deg true from home port. Depth 5-10 m. Valid until 2026-09-30.</desc>
    <sym>Fish</sym>
    <type>PFZ</type>
  </wpt>
  <wpt lat="8.983056" lon="78.403333">
    <time>2026-09-29T10:58:50Z</time>
    <name>TS12</name>
    <cmt>Mudiveeranpattinam 139nmi 114T d6-11m</cmt>
    <desc>SOUTH TAMILNADU / Mudiveeranpattinam. 139.2 nmi at 114 deg true from home port. Depth 6-11 m. Valid until 2026-09-30.</desc>
    <sym>Fish</sym>
    <type>PFZ</type>
  </wpt>
  <wpt lat="8.738611" lon="78.275278">
    <time>2026-09-29T10:58:50Z</time>
    <name>TS34</name>
    <cmt>Perumanal 139nmi 121T d13-18m</cmt>
    <desc>SOUTH TAMILNADU / Perumanal. 139.3 nmi at 121 deg true from home port. Depth 13-18 m. Valid until 2026-09-30.</desc>
    <sym>Fish</sym>
    <type>PFZ</type>
  </wpt>
  <wpt lat="8.998889" lon="78.415000">
    <time>2026-09-29T10:58:50Z</time>
    <name>TS11</name>
    <cmt>Pudukkudi 140nmi 114T d6-11m</cmt>
    <desc>SOUTH TAMILNADU / Pudukkudi. 139.5 nmi at 114 deg true from home port. Depth 6-11 m. Valid until 2026-09-30.</desc>
    <sym>Fish</sym>
    <type>PFZ</type>
  </wpt>
  <wpt lat="7.780278" lon="77.184167">
    <time>2026-09-29T10:58:50Z</time>
    <name>TS63</name>
    <cmt>Keezhakadiapattinam 140nmi 157T d52-57m</cmt>
    <desc>SOUTH TAMILNADU / Keezhakadiapattinam. 140.0 nmi at 157 deg true from home port. Depth 52-57 m. Valid until 2026-09-30.</desc>
    <sym>Fish</sym>
    <type>PFZ</type>
  </wpt>
  <wpt lat="8.722500" lon="78.286111">
    <time>2026-09-29T10:58:50Z</time>
    <name>TS35</name>
    <cmt>Thommayarpuram(Muddukuli 140nmi 121T d13</cmt>
    <desc>SOUTH TAMILNADU / Thommayarpuram(Muddukuli. 140.3 nmi at 121 deg true from home port. Depth 13-18 m. Valid until 2026-09-30.</desc>
    <sym>Fish</sym>
    <type>PFZ</type>
  </wpt>
  <wpt lat="7.780278" lon="77.215556">
    <time>2026-09-29T10:58:50Z</time>
    <name>TS62</name>
    <cmt>Muttom 141nmi 156T d52-57m</cmt>
    <desc>SOUTH TAMILNADU / Muttom. 140.7 nmi at 156 deg true from home port. Depth 52-57 m. Valid until 2026-09-30.</desc>
    <sym>Fish</sym>
    <type>PFZ</type>
  </wpt>
  <wpt lat="8.702778" lon="78.288611">
    <time>2026-09-29T10:58:50Z</time>
    <name>TS36</name>
    <cmt>Koothanguzhi 141nmi 121T d9-14m</cmt>
    <desc>SOUTH TAMILNADU / Koothanguzhi. 141.1 nmi at 121 deg true from home port. Depth 9-14 m. Valid until 2026-09-30.</desc>
    <sym>Fish</sym>
    <type>PFZ</type>
  </wpt>
  <wpt lat="8.650278" lon="78.259444">
    <time>2026-09-29T10:58:50Z</time>
    <name>TS40</name>
    <cmt>Kooduthalai 141nmi 123T d12-17m</cmt>
    <desc>SOUTH TAMILNADU / Kooduthalai. 141.3 nmi at 123 deg true from home port. Depth 12-17 m. Valid until 2026-09-30.</desc>
    <sym>Fish</sym>
    <type>PFZ</type>
  </wpt>
  <wpt lat="7.771667" lon="77.245833">
    <time>2026-09-29T10:58:50Z</time>
    <name>TS64</name>
    <cmt>Azhikkal 142nmi 156T d53-58m</cmt>
    <desc>SOUTH TAMILNADU / Azhikkal. 141.9 nmi at 156 deg true from home port. Depth 53-58 m. Valid until 2026-09-30.</desc>
    <sym>Fish</sym>
    <type>PFZ</type>
  </wpt>
  <wpt lat="8.685833" lon="78.297778">
    <time>2026-09-29T10:58:50Z</time>
    <name>TS37</name>
    <cmt>Kundal 142nmi 122T d12-17m</cmt>
    <desc>SOUTH TAMILNADU / Kundal. 142.1 nmi at 122 deg true from home port. Depth 12-17 m. Valid until 2026-09-30.</desc>
    <sym>Fish</sym>
    <type>PFZ</type>
  </wpt>
  <wpt lat="8.653056" lon="78.278889">
    <time>2026-09-29T10:58:50Z</time>
    <name>TS39</name>
    <cmt>Koottappanai 142nmi 122T d13-18m</cmt>
    <desc>SOUTH TAMILNADU / Koottappanai. 142.2 nmi at 122 deg true from home port. Depth 13-18 m. Valid until 2026-09-30.</desc>
    <sym>Fish</sym>
    <type>PFZ</type>
  </wpt>
  <wpt lat="8.666667" lon="78.293056">
    <time>2026-09-29T10:58:50Z</time>
    <name>TS38</name>
    <cmt>Uvari 142nmi 122T d14-19m</cmt>
    <desc>SOUTH TAMILNADU / Uvari. 142.4 nmi at 122 deg true from home port. Depth 14-19 m. Valid until 2026-09-30.</desc>
    <sym>Fish</sym>
    <type>PFZ</type>
  </wpt>
  <wpt lat="7.753333" lon="77.271389">
    <time>2026-09-29T10:58:50Z</time>
    <name>TS65</name>
    <cmt>Periyakadu 144nmi 155T d52-57m</cmt>
    <desc>SOUTH TAMILNADU / Periyakadu. 143.6 nmi at 155 deg true from home port. Depth 52-57 m. Valid until 2026-09-30.</desc>
    <sym>Fish</sym>
    <type>PFZ</type>
  </wpt>
  <wpt lat="8.492500" lon="78.203889">
    <time>2026-09-29T10:58:50Z</time>
    <name>TS49</name>
    <cmt>Ratchanyapuram 144nmi 127T d13-18m</cmt>
    <desc>SOUTH TAMILNADU / Ratchanyapuram. 144.0 nmi at 127 deg true from home port. Depth 13-18 m. Valid until 2026-09-30.</desc>
    <sym>Fish</sym>
    <type>PFZ</type>
  </wpt>
  <wpt lat="8.511944" lon="78.220000">
    <time>2026-09-29T10:58:50Z</time>
    <name>TS48</name>
    <cmt>Tuticorin 144nmi 126T d13-18m</cmt>
    <desc>SOUTH TAMILNADU / Tuticorin. 144.1 nmi at 126 deg true from home port. Depth 13-18 m. Valid until 2026-09-30.</desc>
    <sym>Fish</sym>
    <type>PFZ</type>
  </wpt>
  <wpt lat="8.468889" lon="78.193889">
    <time>2026-09-29T10:58:50Z</time>
    <name>TS50</name>
    <cmt>Punnakkayal 144nmi 127T d12-17m</cmt>
    <desc>SOUTH TAMILNADU / Punnakkayal. 144.4 nmi at 127 deg true from home port. Depth 12-17 m. Valid until 2026-09-30.</desc>
    <sym>Fish</sym>
    <type>PFZ</type>
  </wpt>
  <wpt lat="8.523611" lon="78.242778">
    <time>2026-09-29T10:58:50Z</time>
    <name>TS47</name>
    <cmt>Pandyan 145nmi 126T d12-17m</cmt>
    <desc>SOUTH TAMILNADU / Pandyan. 144.7 nmi at 126 deg true from home port. Depth 12-17 m. Valid until 2026-09-30.</desc>
    <sym>Fish</sym>
    <type>PFZ</type>
  </wpt>
  <wpt lat="9.015000" lon="78.523611">
    <time>2026-09-29T10:58:50Z</time>
    <name>TS06</name>
    <cmt>Terku Mookkaiyur 145nmi 112T d11-16m</cmt>
    <desc>SOUTH TAMILNADU / Terku Mookkaiyur. 145.0 nmi at 112 deg true from home port. Depth 11-16 m. Valid until 2026-09-30.</desc>
    <sym>Fish</sym>
    <type>PFZ</type>
  </wpt>
  <wpt lat="7.733333" lon="77.295556">
    <time>2026-09-29T10:58:50Z</time>
    <name>TS66</name>
    <cmt>Pozhikkarai 145nmi 155T d52-57m</cmt>
    <desc>SOUTH TAMILNADU / Pozhikkarai. 145.2 nmi at 155 deg true from home port. Depth 52-57 m. Valid until 2026-09-30.</desc>
    <sym>Fish</sym>
    <type>PFZ</type>
  </wpt>
  <wpt lat="8.534722" lon="78.265833">
    <time>2026-09-29T10:58:50Z</time>
    <name>TS46</name>
    <cmt>Inico nagar 146nmi 125T d14-19m</cmt>
    <desc>SOUTH TAMILNADU / Inico nagar. 145.5 nmi at 125 deg true from home port. Depth 14-19 m. Valid until 2026-09-30.</desc>
    <sym>Fish</sym>
    <type>PFZ</type>
  </wpt>
  <wpt lat="8.553056" lon="78.283889">
    <time>2026-09-29T10:58:50Z</time>
    <name>TS45</name>
    <cmt>Thoothukudi 146nmi 124T d16-21m</cmt>
    <desc>SOUTH TAMILNADU / Thoothukudi. 145.7 nmi at 124 deg true from home port. Depth 16-21 m. Valid until 2026-09-30.</desc>
    <sym>Fish</sym>
    <type>PFZ</type>
  </wpt>
  <wpt lat="8.571944" lon="78.301111">
    <time>2026-09-29T10:58:50Z</time>
    <name>TS43</name>
    <cmt>Therespuram 146nmi 124T d18-23m</cmt>
    <desc>SOUTH TAMILNADU / Therespuram. 145.9 nmi at 124 deg true from home port. Depth 18-23 m. Valid until 2026-09-30.</desc>
    <sym>Fish</sym>
    <type>PFZ</type>
  </wpt>
  <wpt lat="9.018889" lon="78.543333">
    <time>2026-09-29T10:58:50Z</time>
    <name>TS05</name>
    <cmt>Rojma Nagar 146nmi 112T d11-16m</cmt>
    <desc>SOUTH TAMILNADU / Rojma Nagar. 146.0 nmi at 112 deg true from home port. Depth 11-16 m. Valid until 2026-09-30.</desc>
    <sym>Fish</sym>
    <type>PFZ</type>
  </wpt>
  <wpt lat="7.721944" lon="77.325000">
    <time>2026-09-29T10:58:50Z</time>
    <name>TS69</name>
    <cmt>Puthenthurai 147nmi 154T d51-56m</cmt>
    <desc>SOUTH TAMILNADU / Puthenthurai. 146.6 nmi at 154 deg true from home port. Depth 51-56 m. Valid until 2026-09-30.</desc>
    <sym>Fish</sym>
    <type>PFZ</type>
  </wpt>
  <wpt lat="9.025833" lon="78.562500">
    <time>2026-09-29T10:58:50Z</time>
    <name>TS03</name>
    <cmt>Valinokkam 147nmi 112T d12-17m</cmt>
    <desc>SOUTH TAMILNADU / Valinokkam. 146.9 nmi at 112 deg true from home port. Depth 12-17 m. Valid until 2026-09-30.</desc>
    <sym>Fish</sym>
    <type>PFZ</type>
  </wpt>
  <wpt lat="8.579167" lon="78.325278">
    <time>2026-09-29T10:58:50Z</time>
    <name>TS41</name>
    <cmt>Thalamuthunagar 147nmi 123T d24-29m</cmt>
    <desc>SOUTH TAMILNADU / Thalamuthunagar. 146.9 nmi at 123 deg true from home port. Depth 24-29 m. Valid until 2026-09-30.</desc>
    <sym>Fish</sym>
    <type>PFZ</type>
  </wpt>
  <wpt lat="8.381667" lon="78.178889">
    <time>2026-09-29T10:58:50Z</time>
    <name>TS51</name>
    <cmt>Kombuthurai Madhakoil 147nmi 129T d14-19</cmt>
    <desc>SOUTH TAMILNADU / Kombuthurai Madhakoil. 146.9 nmi at 129 deg true from home port. Depth 14-19 m. Valid until 2026-09-30.</desc>
    <sym>Fish</sym>
    <type>PFZ</type>
  </wpt>
  <wpt lat="8.295556" lon="78.120278">
    <time>2026-09-29T10:58:50Z</time>
    <name>TS56</name>
    <cmt>Alanthalai 148nmi 132T d11-16m</cmt>
    <desc>SOUTH TAMILNADU / Alanthalai. 147.6 nmi at 132 deg true from home port. Depth 11-16 m. Valid until 2026-09-30.</desc>
    <sym>Fish</sym>
    <type>PFZ</type>
  </wpt>
  <wpt lat="9.033611" lon="78.580833">
    <time>2026-09-29T10:58:50Z</time>
    <name>TS02</name>
    <cmt>Chinna Ervadi 148nmi 111T d12-17m</cmt>
    <desc>SOUTH TAMILNADU / Chinna Ervadi. 147.7 nmi at 111 deg true from home port. Depth 12-17 m. Valid until 2026-09-30.</desc>
    <sym>Fish</sym>
    <type>PFZ</type>
  </wpt>
  <wpt lat="7.717500" lon="77.356389">
    <time>2026-09-29T10:58:50Z</time>
    <name>TS70</name>
    <cmt>Pallam 148nmi 154T d51-56m</cmt>
    <desc>SOUTH TAMILNADU / Pallam. 147.7 nmi at 154 deg true from home port. Depth 51-56 m. Valid until 2026-09-30.</desc>
    <sym>Fish</sym>
    <type>PFZ</type>
  </wpt>
  <wpt lat="8.275833" lon="78.107222">
    <time>2026-09-29T10:58:50Z</time>
    <name>TS57</name>
    <cmt>Kallamozhi 148nmi 132T d9-14m</cmt>
    <desc>SOUTH TAMILNADU / Kallamozhi. 147.8 nmi at 132 deg true from home port. Depth 9-14 m. Valid until 2026-09-30.</desc>
    <sym>Fish</sym>
    <type>PFZ</type>
  </wpt>
  <wpt lat="8.358056" lon="78.180278">
    <time>2026-09-29T10:58:50Z</time>
    <name>TS52</name>
    <cmt>Singhithurai 148nmi 130T d14-19m</cmt>
    <desc>SOUTH TAMILNADU / Singhithurai. 147.9 nmi at 130 deg true from home port. Depth 14-19 m. Valid until 2026-09-30.</desc>
    <sym>Fish</sym>
    <type>PFZ</type>
  </wpt>
  <wpt lat="8.309167" lon="78.139444">
    <time>2026-09-29T10:58:50Z</time>
    <name>TS55</name>
    <cmt>Amalinagar 148nmi 131T d10-15m</cmt>
    <desc>SOUTH TAMILNADU / Amalinagar. 147.9 nmi at 131 deg true from home port. Depth 10-15 m. Valid until 2026-09-30.</desc>
    <sym>Fish</sym>
    <type>PFZ</type>
  </wpt>
  <wpt lat="8.577500" lon="78.350556">
    <time>2026-09-29T10:58:50Z</time>
    <name>TS42</name>
    <cmt>Vellapatti 148nmi 123T d29-34m</cmt>
    <desc>SOUTH TAMILNADU / Vellapatti. 148.2 nmi at 123 deg true from home port. Depth 29-34 m. Valid until 2026-09-30.</desc>
    <sym>Fish</sym>
    <type>PFZ</type>
  </wpt>
  <wpt lat="7.721944" lon="77.387778">
    <time>2026-09-29T10:58:50Z</time>
    <name>TS68</name>
    <cmt>Keezhamanakudi 148nmi 153T d50-55m</cmt>
    <desc>SOUTH TAMILNADU / Keezhamanakudi. 148.2 nmi at 153 deg true from home port. Depth 50-55 m. Valid until 2026-09-30.</desc>
    <sym>Fish</sym>
    <type>PFZ</type>
  </wpt>
  <wpt lat="8.219722" lon="78.066667">
    <time>2026-09-29T10:58:50Z</time>
    <name>TS60</name>
    <cmt>Periyathalai 148nmi 134T d21-26m</cmt>
    <desc>SOUTH TAMILNADU / Periyathalai. 148.3 nmi at 134 deg true from home port. Depth 21-26 m. Valid until 2026-09-30.</desc>
    <sym>Fish</sym>
    <type>PFZ</type>
  </wpt>
  <wpt lat="8.253611" lon="78.099167">
    <time>2026-09-29T10:58:50Z</time>
    <name>TS58</name>
    <cmt>Kulasekharapattinam 148nmi 132T d18-23m</cmt>
    <desc>SOUTH TAMILNADU / Kulasekharapattinam. 148.4 nmi at 132 deg true from home port. Depth 18-23 m. Valid until 2026-09-30.</desc>
    <sym>Fish</sym>
    <type>PFZ</type>
  </wpt>
  <wpt lat="8.319167" lon="78.161111">
    <time>2026-09-29T10:58:50Z</time>
    <name>TS54</name>
    <cmt>Jeevanagar 148nmi 130T d12-17m</cmt>
    <desc>SOUTH TAMILNADU / Jeevanagar. 148.5 nmi at 130 deg true from home port. Depth 12-17 m. Valid until 2026-09-30.</desc>
    <sym>Fish</sym>
    <type>PFZ</type>
  </wpt>
  <wpt lat="8.234444" lon="78.085000">
    <time>2026-09-29T10:58:50Z</time>
    <name>TS59</name>
    <cmt>Manappad Pt 148nmi 133T d21-26m</cmt>
    <desc>SOUTH TAMILNADU / Manappad Pt. 148.5 nmi at 133 deg true from home port. Depth 21-26 m. Valid until 2026-09-30.</desc>
    <sym>Fish</sym>
    <type>PFZ</type>
  </wpt>
  <wpt lat="8.334444" lon="78.178611">
    <time>2026-09-29T10:58:50Z</time>
    <name>TS53</name>
    <cmt>Veerapandiyapattinam 149nmi 130T d14-19m</cmt>
    <desc>SOUTH TAMILNADU / Veerapandiyapattinam. 148.7 nmi at 130 deg true from home port. Depth 14-19 m. Valid until 2026-09-30.</desc>
    <sym>Fish</sym>
    <type>PFZ</type>
  </wpt>
  <wpt lat="9.036944" lon="78.600833">
    <time>2026-09-29T10:58:50Z</time>
    <name>TS01</name>
    <cmt>Vembar 149nmi 111T d14-19m</cmt>
    <desc>SOUTH TAMILNADU / Vembar. 148.8 nmi at 111 deg true from home port. Depth 14-19 m. Valid until 2026-09-30.</desc>
    <sym>Fish</sym>
    <type>PFZ</type>
  </wpt>
  <wpt lat="7.726389" lon="77.418889">
    <time>2026-09-29T10:58:50Z</time>
    <name>TS67</name>
    <cmt>Mela Manakudi 149nmi 152T d55-60m</cmt>
    <desc>SOUTH TAMILNADU / Mela Manakudi. 148.9 nmi at 152 deg true from home port. Depth 55-60 m. Valid until 2026-09-30.</desc>
    <sym>Fish</sym>
    <type>PFZ</type>
  </wpt>
  <wpt lat="8.571111" lon="78.375278">
    <time>2026-09-29T10:58:50Z</time>
    <name>TS44</name>
    <cmt>Tharuvaikulam 150nmi 123T d42-47m</cmt>
    <desc>SOUTH TAMILNADU / Tharuvaikulam. 149.6 nmi at 123 deg true from home port. Depth 42-47 m. Valid until 2026-09-30.</desc>
    <sym>Fish</sym>
    <type>PFZ</type>
  </wpt>
  <wpt lat="9.022222" lon="78.613889">
    <time>2026-09-29T10:58:50Z</time>
    <name>TS04</name>
    <cmt>Kilakarai 150nmi 111T d18-23m</cmt>
    <desc>SOUTH TAMILNADU / Kilakarai. 149.8 nmi at 111 deg true from home port. Depth 18-23 m. Valid until 2026-09-30.</desc>
    <sym>Fish</sym>
    <type>PFZ</type>
  </wpt>
  <wpt lat="9.011667" lon="78.630833">
    <time>2026-09-29T10:58:50Z</time>
    <name>TS07</name>
    <cmt>Periasamypuram 151nmi 111T d18-23m</cmt>
    <desc>SOUTH TAMILNADU / Periasamypuram. 151.0 nmi at 111 deg true from home port. Depth 18-23 m. Valid until 2026-09-30.</desc>
    <sym>Fish</sym>
    <type>PFZ</type>
  </wpt>
  <wpt lat="9.006111" lon="78.650278">
    <time>2026-09-29T10:58:50Z</time>
    <name>TS10</name>
    <cmt>Kalimankundu 152nmi 111T d19-24m</cmt>
    <desc>SOUTH TAMILNADU / Kalimankundu. 152.2 nmi at 111 deg true from home port. Depth 19-24 m. Valid until 2026-09-30.</desc>
    <sym>Fish</sym>
    <type>PFZ</type>
  </wpt>
  <wpt lat="9.007500" lon="78.670278">
    <time>2026-09-29T10:58:50Z</time>
    <name>TS08</name>
    <cmt>Inthira Nagar 153nmi 111T d18-23m</cmt>
    <desc>SOUTH TAMILNADU / Inthira Nagar. 153.3 nmi at 111 deg true from home port. Depth 18-23 m. Valid until 2026-09-30.</desc>
    <sym>Fish</sym>
    <type>PFZ</type>
  </wpt>
  <wpt lat="9.007222" lon="78.690278">
    <time>2026-09-29T10:58:50Z</time>
    <name>TS09</name>
    <cmt>Muttupettai 154nmi 111T d14-19m</cmt>
    <desc>SOUTH TAMILNADU / Muttupettai. 154.4 nmi at 111 deg true from home port. Depth 14-19 m. Valid until 2026-09-30.</desc>
    <sym>Fish</sym>
    <type>PFZ</type>
  </wpt>
  <wpt lat="7.638056" lon="77.524444">
    <time>2026-09-29T10:58:50Z</time>
    <name>TS71</name>
    <cmt>Puthur 156nmi 151T d61-66m</cmt>
    <desc>SOUTH TAMILNADU / Puthur. 156.5 nmi at 151 deg true from home port. Depth 61-66 m. Valid until 2026-09-30.</desc>
    <sym>Fish</sym>
    <type>PFZ</type>
  </wpt>
  <wpt lat="7.615556" lon="77.536667">
    <time>2026-09-29T10:58:50Z</time>
    <name>TS72</name>
    <cmt>Puthugramam (Vavuthurai 158nmi 151T d69-</cmt>
    <desc>SOUTH TAMILNADU / Puthugramam (Vavuthurai. 158.0 nmi at 151 deg true from home port. Depth 69-74 m. Valid until 2026-09-30.</desc>
    <sym>Fish</sym>
    <type>PFZ</type>
  </wpt>
  <wpt lat="7.590278" lon="77.539167">
    <time>2026-09-29T10:58:50Z</time>
    <name>TS73</name>
    <cmt>Kovalam Kanniyakumarai 159nmi 151T d76-8</cmt>
    <desc>SOUTH TAMILNADU / Kovalam Kanniyakumarai. 159.4 nmi at 151 deg true from home port. Depth 76-81 m. Valid until 2026-09-30.</desc>
    <sym>Fish</sym>
    <type>PFZ</type>
  </wpt>
  <wpt lat="7.564722" lon="77.537222">
    <time>2026-09-29T10:58:50Z</time>
    <name>TS74</name>
    <cmt>Kanniyakumari 161nmi 152T d78-83m</cmt>
    <desc>SOUTH TAMILNADU / Kanniyakumari. 160.7 nmi at 152 deg true from home port. Depth 78-83 m. Valid until 2026-09-30.</desc>
    <sym>Fish</sym>
    <type>PFZ</type>
  </wpt>
  <wpt lat="7.541389" lon="77.545833">
    <time>2026-09-29T10:58:50Z</time>
    <name>TS75</name>
    <cmt>Chinnamuttom 162nmi 152T d85-90m</cmt>
    <desc>SOUTH TAMILNADU / Chinnamuttom. 162.2 nmi at 152 deg true from home port. Depth 85-90 m. Valid until 2026-09-30.</desc>
    <sym>Fish</sym>
    <type>PFZ</type>
  </wpt>
  <wpt lat="7.526389" lon="77.566667">
    <time>2026-09-29T10:58:50Z</time>
    <name>TS76</name>
    <cmt>Lipuram 164nmi 152T d84-89m</cmt>
    <desc>SOUTH TAMILNADU / Lipuram. 163.5 nmi at 152 deg true from home port. Depth 84-89 m. Valid until 2026-09-30.</desc>
    <sym>Fish</sym>
    <type>PFZ</type>
  </wpt>
  <wpt lat="7.511667" lon="77.587500">
    <time>2026-09-29T10:58:50Z</time>
    <name>TS77</name>
    <cmt>Arockiyapuram 165nmi 151T d86-91m</cmt>
    <desc>SOUTH TAMILNADU / Arockiyapuram. 164.9 nmi at 151 deg true from home port. Depth 86-91 m. Valid until 2026-09-30.</desc>
    <sym>Fish</sym>
    <type>PFZ</type>
  </wpt>
  <wpt lat="7.488889" lon="77.598333">
    <time>2026-09-29T10:58:50Z</time>
    <name>TS78</name>
    <cmt>Kesavanputhenthurai 166nmi 151T d91-96m</cmt>
    <desc>SOUTH TAMILNADU / Kesavanputhenthurai. 166.4 nmi at 151 deg true from home port. Depth 91-96 m. Valid until 2026-09-30.</desc>
    <sym>Fish</sym>
    <type>PFZ</type>
  </wpt>
  <wpt lat="7.463611" lon="77.601389">
    <time>2026-09-29T10:58:50Z</time>
    <name>TS79</name>
    <cmt>Kuttapuli 168nmi 152T d100-105m</cmt>
    <desc>SOUTH TAMILNADU / Kuttapuli. 167.8 nmi at 152 deg true from home port. Depth 100-105 m. Valid until 2026-09-30.</desc>
    <sym>Fish</sym>
    <type>PFZ</type>
  </wpt>
  <wpt lat="8.952778" lon="78.925278">
    <time>2026-09-29T10:58:50Z</time>
    <name>TS20</name>
    <cmt>Seeniyappa Dharga 169nmi 110T d126-131m</cmt>
    <desc>SOUTH TAMILNADU / Seeniyappa Dharga. 168.6 nmi at 110 deg true from home port. Depth 126-131 m. Valid until 2026-09-30.</desc>
    <sym>Fish</sym>
    <type>PFZ</type>
  </wpt>
  <wpt lat="7.440278" lon="77.610833">
    <time>2026-09-29T10:58:50Z</time>
    <name>TS80</name>
    <cmt>Chettikulam 169nmi 152T d111-116m</cmt>
    <desc>SOUTH TAMILNADU / Chettikulam. 169.3 nmi at 152 deg true from home port. Depth 111-116 m. Valid until 2026-09-30.</desc>
    <sym>Fish</sym>
    <type>PFZ</type>
  </wpt>
  <wpt lat="8.946111" lon="78.963333">
    <time>2026-09-29T10:58:50Z</time>
    <name>TS22</name>
    <cmt>Vedhalai 171nmi 110T d220-225m</cmt>
    <desc>SOUTH TAMILNADU / Vedhalai. 170.8 nmi at 110 deg true from home port. Depth 220-225 m. Valid until 2026-09-30.</desc>
    <sym>Fish</sym>
    <type>PFZ</type>
  </wpt>
  <wpt lat="8.957500" lon="79.000556">
    <time>2026-09-29T10:58:50Z</time>
    <name>TS17</name>
    <cmt>Mandapam (South) 173nmi 110T d290-295m</cmt>
    <desc>SOUTH TAMILNADU / Mandapam (South). 172.7 nmi at 110 deg true from home port. Depth 290-295 m. Valid until 2026-09-30.</desc>
    <sym>Fish</sym>
    <type>PFZ</type>
  </wpt>
  <wpt lat="8.978611" lon="79.032778">
    <time>2026-09-29T10:58:50Z</time>
    <name>TS13</name>
    <cmt>Munaikadu 174nmi 109T d128-133m</cmt>
    <desc>SOUTH TAMILNADU / Munaikadu. 174.0 nmi at 109 deg true from home port. Depth 128-133 m. Valid until 2026-09-30.</desc>
    <sym>Fish</sym>
    <type>PFZ</type>
  </wpt>
  <wpt lat="8.973056" lon="79.069722">
    <time>2026-09-29T10:58:50Z</time>
    <name>TS14</name>
    <cmt>Mandpam (North) 176nmi 109T d165-170m</cmt>
    <desc>SOUTH TAMILNADU / Mandpam (North). 176.2 nmi at 109 deg true from home port. Depth 165-170 m. Valid until 2026-09-30.</desc>
    <sym>Fish</sym>
    <type>PFZ</type>
  </wpt>
  <wpt lat="8.952778" lon="79.102778">
    <time>2026-09-29T10:58:50Z</time>
    <name>TS19</name>
    <cmt>Pamban Kunthukal 178nmi 109T d269-274m</cmt>
    <desc>SOUTH TAMILNADU / Pamban Kunthukal. 178.5 nmi at 109 deg true from home port. Depth 269-274 m. Valid until 2026-09-30.</desc>
    <sym>Fish</sym>
    <type>PFZ</type>
  </wpt>
  <wpt lat="8.941667" lon="79.140278">
    <time>2026-09-29T10:58:50Z</time>
    <name>TS25</name>
    <cmt>Chinnapalam 181nmi 109T d353-358m</cmt>
    <desc>SOUTH TAMILNADU / Chinnapalam. 180.8 nmi at 109 deg true from home port. Depth 353-358 m. Valid until 2026-09-30.</desc>
    <sym>Fish</sym>
    <type>PFZ</type>
  </wpt>
  <wpt lat="8.937778" lon="79.179167">
    <time>2026-09-29T10:58:50Z</time>
    <name>TS27</name>
    <cmt>Mukuntharayarchatram 183nmi 109T d449-45</cmt>
    <desc>SOUTH TAMILNADU / Mukuntharayarchatram. 183.0 nmi at 109 deg true from home port. Depth 449-454 m. Valid until 2026-09-30.</desc>
    <sym>Fish</sym>
    <type>PFZ</type>
  </wpt>
  <wpt lat="8.949444" lon="79.216111">
    <time>2026-09-29T10:58:50Z</time>
    <name>TS21</name>
    <cmt>Dhanushkodi 185nmi 108T d422-427m</cmt>
    <desc>SOUTH TAMILNADU / Dhanushkodi. 184.9 nmi at 108 deg true from home port. Depth 422-427 m. Valid until 2026-09-30.</desc>
    <sym>Fish</sym>
    <type>PFZ</type>
  </wpt>
  <wpt lat="8.969722" lon="79.249444">
    <time>2026-09-29T10:58:50Z</time>
    <name>TS15</name>
    <cmt>Verkode 186nmi 108T d307-312m</cmt>
    <desc>SOUTH TAMILNADU / Verkode. 186.4 nmi at 108 deg true from home port. Depth 307-312 m. Valid until 2026-09-30.</desc>
    <sym>Fish</sym>
    <type>PFZ</type>
  </wpt>
  <wpt lat="9.843611" lon="76.123889">
    <time>2026-09-29T10:58:50Z</time>
    <name>KL98</name>
    <cmt>Maruvakad 10nmi 236T d24-29m</cmt>
    <desc>KERALA / Maruvakad. 9.9 nmi at 236 deg true from home port. Depth 24-29 m. Valid until 2026-09-30.</desc>
    <sym>Fish</sym>
    <type>PFZ</type>
  </wpt>
  <wpt lat="9.808056" lon="76.144167">
    <time>2026-09-29T10:58:50Z</time>
    <name>KL99</name>
    <cmt>Chellanum 10nmi 222T d20-25m</cmt>
    <desc>KERALA / Chellanum. 10.4 nmi at 222 deg true from home port. Depth 20-25 m. Valid until 2026-09-30.</desc>
    <sym>Fish</sym>
    <type>PFZ</type>
  </wpt>
  <wpt lat="9.861389" lon="76.087222">
    <time>2026-09-29T10:58:50Z</time>
    <name>KL97</name>
    <cmt>Puthenthodu(Kannamali) 11nmi 246T d28-33</cmt>
    <desc>KERALA / Puthenthodu(Kannamali). 11.2 nmi at 246 deg true from home port. Depth 28-33 m. Valid until 2026-09-30.</desc>
    <sym>Fish</sym>
    <type>PFZ</type>
  </wpt>
  <wpt lat="9.767222" lon="76.143611">
    <time>2026-09-29T10:58:50Z</time>
    <name>KL100</name>
    <cmt>Pallithodu 12nmi 214T d21-26m</cmt>
    <desc>KERALA / Pallithodu. 12.3 nmi at 214 deg true from home port. Depth 21-26 m. Valid until 2026-09-30.</desc>
    <sym>Fish</sym>
    <type>PFZ</type>
  </wpt>
  <wpt lat="9.885278" lon="76.055833">
    <time>2026-09-29T10:58:50Z</time>
    <name>KL96</name>
    <cmt>Chillickal 12nmi 256T d31-36m</cmt>
    <desc>KERALA / Chillickal. 12.5 nmi at 256 deg true from home port. Depth 31-36 m. Valid until 2026-09-30.</desc>
    <sym>Fish</sym>
    <type>PFZ</type>
  </wpt>
  <wpt lat="9.919444" lon="76.033889">
    <time>2026-09-29T10:58:50Z</time>
    <name>KL95</name>
    <cmt>Kalamukku 14nmi 266T d29-34m</cmt>
    <desc>KERALA / Kalamukku. 13.5 nmi at 266 deg true from home port. Depth 29-34 m. Valid until 2026-09-30.</desc>
    <sym>Fish</sym>
    <type>PFZ</type>
  </wpt>
  <wpt lat="9.940833" lon="75.998611">
    <time>2026-09-29T10:58:50Z</time>
    <name>KL94</name>
    <cmt>Ernakulam 16nmi 271T d30-35m</cmt>
    <desc>KERALA / Ernakulam. 15.5 nmi at 271 deg true from home port. Depth 30-35 m. Valid until 2026-09-30.</desc>
    <sym>Fish</sym>
    <type>PFZ</type>
  </wpt>
  <wpt lat="9.950833" lon="75.958889">
    <time>2026-09-29T10:58:50Z</time>
    <name>KL93</name>
    <cmt>Nayarambalam 18nmi 273T d30-35m</cmt>
    <desc>KERALA / Nayarambalam. 17.9 nmi at 273 deg true from home port. Depth 30-35 m. Valid until 2026-09-30.</desc>
    <sym>Fish</sym>
    <type>PFZ</type>
  </wpt>
  <wpt lat="9.955556" lon="75.917778">
    <time>2026-09-29T10:58:50Z</time>
    <name>KL92</name>
    <cmt>Narakkal 20nmi 273T d37-42m</cmt>
    <desc>KERALA / Narakkal. 20.4 nmi at 273 deg true from home port. Depth 37-42 m. Valid until 2026-09-30.</desc>
    <sym>Fish</sym>
    <type>PFZ</type>
  </wpt>
  <wpt lat="9.968611" lon="75.879167">
    <time>2026-09-29T10:58:50Z</time>
    <name>KL91</name>
    <cmt>Vadakkal 23nmi 275T d34-39m</cmt>
    <desc>KERALA / Vadakkal. 22.7 nmi at 275 deg true from home port. Depth 34-39 m. Valid until 2026-09-30.</desc>
    <sym>Fish</sym>
    <type>PFZ</type>
  </wpt>
  <wpt lat="9.530000" lon="76.005556">
    <time>2026-09-29T10:58:50Z</time>
    <name>KL101</name>
    <cmt>Pollethai 29nmi 212T d54-59m</cmt>
    <desc>KERALA / Pollethai. 28.6 nmi at 212 deg true from home port. Depth 54-59 m. Valid until 2026-09-30.</desc>
    <sym>Fish</sym>
    <type>PFZ</type>
  </wpt>
  <wpt lat="9.489722" lon="76.034722">
    <time>2026-09-29T10:58:50Z</time>
    <name>KL102</name>
    <cmt>Thumpolly 30nmi 207T d41-46m</cmt>
    <desc>KERALA / Thumpolly. 29.9 nmi at 207 deg true from home port. Depth 41-46 m. Valid until 2026-09-30.</desc>
    <sym>Fish</sym>
    <type>PFZ</type>
  </wpt>
  <wpt lat="9.463056" lon="76.077222">
    <time>2026-09-29T10:58:50Z</time>
    <name>KL103</name>
    <cmt>Thazhampally 30nmi 201T d51-56m</cmt>
    <desc>KERALA / Thazhampally. 30.3 nmi at 201 deg true from home port. Depth 51-56 m. Valid until 2026-09-30.</desc>
    <sym>Fish</sym>
    <type>PFZ</type>
  </wpt>
  <wpt lat="9.431667" lon="76.116667">
    <time>2026-09-29T10:58:50Z</time>
    <name>KL104</name>
    <cmt>Kalarkod 31nmi 196T d41-46m</cmt>
    <desc>KERALA / Kalarkod. 31.4 nmi at 196 deg true from home port. Depth 41-46 m. Valid until 2026-09-30.</desc>
    <sym>Fish</sym>
    <type>PFZ</type>
  </wpt>
  <wpt lat="9.388333" lon="76.142222">
    <time>2026-09-29T10:58:50Z</time>
    <name>KL105</name>
    <cmt>Punnappra 34nmi 192T d34-39m</cmt>
    <desc>KERALA / Punnappra. 33.5 nmi at 192 deg true from home port. Depth 34-39 m. Valid until 2026-09-30.</desc>
    <sym>Fish</sym>
    <type>PFZ</type>
  </wpt>
  <wpt lat="9.341111" lon="76.158889">
    <time>2026-09-29T10:58:50Z</time>
    <name>KL106</name>
    <cmt>Valanjavazhy 36nmi 190T d39-44m</cmt>
    <desc>KERALA / Valanjavazhy. 36.1 nmi at 190 deg true from home port. Depth 39-44 m. Valid until 2026-09-30.</desc>
    <sym>Fish</sym>
    <type>PFZ</type>
  </wpt>
  <wpt lat="10.131944" lon="75.668333">
    <time>2026-09-29T10:58:50Z</time>
    <name>KL90</name>
    <cmt>Kara 37nmi 288T d140-145m</cmt>
    <desc>KERALA / Kara. 37.0 nmi at 288 deg true from home port. Depth 140-145 m. Valid until 2026-09-30.</desc>
    <sym>Fish</sym>
    <type>PFZ</type>
  </wpt>
  <wpt lat="10.147778" lon="75.650556">
    <time>2026-09-29T10:58:50Z</time>
    <name>KL89</name>
    <cmt>Kulimuttam 38nmi 289T d209-214m</cmt>
    <desc>KERALA / Kulimuttam. 38.3 nmi at 289 deg true from home port. Depth 209-214 m. Valid until 2026-09-30.</desc>
    <sym>Fish</sym>
    <type>PFZ</type>
  </wpt>
  <wpt lat="9.291111" lon="76.166111">
    <time>2026-09-29T10:58:50Z</time>
    <name>KL107</name>
    <cmt>Ambalapuzha 39nmi 188T d44-49m</cmt>
    <desc>KERALA / Ambalapuzha. 39.0 nmi at 188 deg true from home port. Depth 44-49 m. Valid until 2026-09-30.</desc>
    <sym>Fish</sym>
    <type>PFZ</type>
  </wpt>
  <wpt lat="10.168333" lon="75.637222">
    <time>2026-09-29T10:58:50Z</time>
    <name>KL88</name>
    <cmt>KaipamangalamVanchipura 39nmi 291T d262-</cmt>
    <desc>KERALA / KaipamangalamVanchipura. 39.4 nmi at 291 deg true from home port. Depth 262-267 m. Valid until 2026-09-30.</desc>
    <sym>Fish</sym>
    <type>PFZ</type>
  </wpt>
  <wpt lat="10.183611" lon="75.618611">
    <time>2026-09-29T10:58:50Z</time>
    <name>KL87</name>
    <cmt>Kazhimbram 41nmi 291T d406-411m</cmt>
    <desc>KERALA / Kazhimbram. 40.8 nmi at 291 deg true from home port. Depth 406-411 m. Valid until 2026-09-30.</desc>
    <sym>Fish</sym>
    <type>PFZ</type>
  </wpt>
  <wpt lat="9.241667" lon="76.159167">
    <time>2026-09-29T10:58:50Z</time>
    <name>KL108</name>
    <cmt>Purakkad 42nmi 188T d47-52m</cmt>
    <desc>KERALA / Purakkad. 42.0 nmi at 188 deg true from home port. Depth 47-52 m. Valid until 2026-09-30.</desc>
    <sym>Fish</sym>
    <type>PFZ</type>
  </wpt>
  <wpt lat="10.196944" lon="75.598333">
    <time>2026-09-29T10:58:50Z</time>
    <name>KL86</name>
    <cmt>Palapetty 42nmi 292T d586-591m</cmt>
    <desc>KERALA / Palapetty. 42.2 nmi at 292 deg true from home port. Depth 586-591 m. Valid until 2026-09-30.</desc>
    <sym>Fish</sym>
    <type>PFZ</type>
  </wpt>
  <wpt lat="10.213889" lon="75.580833">
    <time>2026-09-29T10:58:50Z</time>
    <name>KL85</name>
    <cmt>Edamuttam 44nmi 292T d675-680m</cmt>
    <desc>KERALA / Edamuttam. 43.5 nmi at 292 deg true from home port. Depth 675-680 m. Valid until 2026-09-30.</desc>
    <sym>Fish</sym>
    <type>PFZ</type>
  </wpt>
  <wpt lat="10.233611" lon="75.566667">
    <time>2026-09-29T10:58:50Z</time>
    <name>KL84</name>
    <cmt>Nattika 45nmi 293T d718-723m</cmt>
    <desc>KERALA / Nattika. 44.7 nmi at 293 deg true from home port. Depth 718-723 m. Valid until 2026-09-30.</desc>
    <sym>Fish</sym>
    <type>PFZ</type>
  </wpt>
  <wpt lat="9.199722" lon="76.131667">
    <time>2026-09-29T10:58:50Z</time>
    <name>KL109</name>
    <cmt>Thottappally 45nmi 190T d51-56m</cmt>
    <desc>KERALA / Thottappally. 44.7 nmi at 190 deg true from home port. Depth 51-56 m. Valid until 2026-09-30.</desc>
    <sym>Fish</sym>
    <type>PFZ</type>
  </wpt>
  <wpt lat="10.255833" lon="75.557778">
    <time>2026-09-29T10:58:50Z</time>
    <name>KL83</name>
    <cmt>Thalikulam 46nmi 295T d820-825m</cmt>
    <desc>KERALA / Thalikulam. 45.8 nmi at 295 deg true from home port. Depth 820-825 m. Valid until 2026-09-30.</desc>
    <sym>Fish</sym>
    <type>PFZ</type>
  </wpt>
  <wpt lat="10.280278" lon="75.557778">
    <time>2026-09-29T10:58:50Z</time>
    <name>KL82</name>
    <cmt>Vadanappally 46nmi 296T d842-847m</cmt>
    <desc>KERALA / Vadanappally. 46.4 nmi at 296 deg true from home port. Depth 842-847 m. Valid until 2026-09-30.</desc>
    <sym>Fish</sym>
    <type>PFZ</type>
  </wpt>
  <wpt lat="9.171667" lon="76.090000">
    <time>2026-09-29T10:58:50Z</time>
    <name>KL110</name>
    <cmt>Thrikunnapuzha 47nmi 192T d53-58m</cmt>
    <desc>KERALA / Thrikunnapuzha. 46.8 nmi at 192 deg true from home port. Depth 53-58 m. Valid until 2026-09-30.</desc>
    <sym>Fish</sym>
    <type>PFZ</type>
  </wpt>
  <wpt lat="10.304167" lon="75.560833">
    <time>2026-09-29T10:58:50Z</time>
    <name>KL81</name>
    <cmt>Chavakkad 47nmi 298T d785-790m</cmt>
    <desc>KERALA / Chavakkad. 46.9 nmi at 298 deg true from home port. Depth 785-790 m. Valid until 2026-09-30.</desc>
    <sym>Fish</sym>
    <type>PFZ</type>
  </wpt>
  <wpt lat="10.382778" lon="75.537500">
    <time>2026-09-29T10:58:50Z</time>
    <name>KL80</name>
    <cmt>Kodungallur 50nmi 302T d505-510m</cmt>
    <desc>KERALA / Kodungallur. 50.4 nmi at 302 deg true from home port. Depth 505-510 m. Valid until 2026-09-30.</desc>
    <sym>Fish</sym>
    <type>PFZ</type>
  </wpt>
  <wpt lat="10.408889" lon="75.534722">
    <time>2026-09-29T10:58:50Z</time>
    <name>KL79</name>
    <cmt>Eriyad(Chelarappa) 51nmi 303T d200-205m</cmt>
    <desc>KERALA / Eriyad(Chelarappa). 51.4 nmi at 303 deg true from home port. Depth 200-205 m. Valid until 2026-09-30.</desc>
    <sym>Fish</sym>
    <type>PFZ</type>
  </wpt>
  <wpt lat="10.435000" lon="75.538889">
    <time>2026-09-29T10:58:50Z</time>
    <name>KL78</name>
    <cmt>Pullut 52nmi 305T d93-98m</cmt>
    <desc>KERALA / Pullut. 52.1 nmi at 305 deg true from home port. Depth 93-98 m. Valid until 2026-09-30.</desc>
    <sym>Fish</sym>
    <type>PFZ</type>
  </wpt>
  <wpt lat="10.460556" lon="75.532778">
    <time>2026-09-29T10:58:50Z</time>
    <name>KL77</name>
    <cmt>PerinjanamAraattukadavu 53nmi 306T d94-9</cmt>
    <desc>KERALA / PerinjanamAraattukadavu. 53.2 nmi at 306 deg true from home port. Depth 94-99 m. Valid until 2026-09-30.</desc>
    <sym>Fish</sym>
    <type>PFZ</type>
  </wpt>
  <wpt lat="10.483056" lon="75.518611">
    <time>2026-09-29T10:58:50Z</time>
    <name>KL76</name>
    <cmt>Mullassheri 55nmi 307T d96-101m</cmt>
    <desc>KERALA / Mullassheri. 54.7 nmi at 307 deg true from home port. Depth 96-101 m. Valid until 2026-09-30.</desc>
    <sym>Fish</sym>
    <type>PFZ</type>
  </wpt>
  <wpt lat="10.506944" lon="75.506667">
    <time>2026-09-29T10:58:50Z</time>
    <name>KL75</name>
    <cmt>Blangad 56nmi 307T d111-116m</cmt>
    <desc>KERALA / Blangad. 56.1 nmi at 307 deg true from home port. Depth 111-116 m. Valid until 2026-09-30.</desc>
    <sym>Fish</sym>
    <type>PFZ</type>
  </wpt>
  <wpt lat="10.533333" lon="75.504444">
    <time>2026-09-29T10:58:50Z</time>
    <name>KL74</name>
    <cmt>Panchavadi 57nmi 309T d101-106m</cmt>
    <desc>KERALA / Panchavadi. 57.2 nmi at 309 deg true from home port. Depth 101-106 m. Valid until 2026-09-30.</desc>
    <sym>Fish</sym>
    <type>PFZ</type>
  </wpt>
  <wpt lat="10.560000" lon="75.506944">
    <time>2026-09-29T10:58:50Z</time>
    <name>KL73</name>
    <cmt>Edakazhiyur 58nmi 310T d82-87m</cmt>
    <desc>KERALA / Edakazhiyur. 58.1 nmi at 310 deg true from home port. Depth 82-87 m. Valid until 2026-09-30.</desc>
    <sym>Fish</sym>
    <type>PFZ</type>
  </wpt>
  <wpt lat="10.585833" lon="75.512222">
    <time>2026-09-29T10:58:50Z</time>
    <name>KL72</name>
    <cmt>Vayilattur 59nmi 311T d71-76m</cmt>
    <desc>KERALA / Vayilattur. 58.9 nmi at 311 deg true from home port. Depth 71-76 m. Valid until 2026-09-30.</desc>
    <sym>Fish</sym>
    <type>PFZ</type>
  </wpt>
  <wpt lat="10.611389" lon="75.520833">
    <time>2026-09-29T10:58:50Z</time>
    <name>KL71</name>
    <cmt>Attupuram 60nmi 313T d69-74m</cmt>
    <desc>KERALA / Attupuram. 59.5 nmi at 313 deg true from home port. Depth 69-74 m. Valid until 2026-09-30.</desc>
    <sym>Fish</sym>
    <type>PFZ</type>
  </wpt>
  <wpt lat="8.925000" lon="76.126944">
    <time>2026-09-29T10:58:50Z</time>
    <name>KL111</name>
    <cmt>Alappattu 61nmi 188T d58-63m</cmt>
    <desc>KERALA / Alappattu. 61.0 nmi at 188 deg true from home port. Depth 58-63 m. Valid until 2026-09-30.</desc>
    <sym>Fish</sym>
    <type>PFZ</type>
  </wpt>
  <wpt lat="8.913333" lon="76.175000">
    <time>2026-09-29T10:58:50Z</time>
    <name>KL112</name>
    <cmt>Chavara 61nmi 185T d51-56m</cmt>
    <desc>KERALA / Chavara. 61.3 nmi at 185 deg true from home port. Depth 51-56 m. Valid until 2026-09-30.</desc>
    <sym>Fish</sym>
    <type>PFZ</type>
  </wpt>
  <wpt lat="10.714444" lon="75.561389">
    <time>2026-09-29T10:58:50Z</time>
    <name>KL70</name>
    <cmt>Mannalamkunnu 62nmi 318T d52-57m</cmt>
    <desc>KERALA / Mannalamkunnu. 62.2 nmi at 318 deg true from home port. Depth 52-57 m. Valid until 2026-09-30.</desc>
    <sym>Fish</sym>
    <type>PFZ</type>
  </wpt>
  <wpt lat="10.755556" lon="75.602778">
    <time>2026-09-29T10:58:50Z</time>
    <name>KL68</name>
    <cmt>Veliyangod 62nmi 322T d48-53m</cmt>
    <desc>KERALA / Veliyangod. 62.5 nmi at 322 deg true from home port. Depth 48-53 m. Valid until 2026-09-30.</desc>
    <sym>Fish</sym>
    <type>PFZ</type>
  </wpt>
  <wpt lat="10.737500" lon="75.579167">
    <time>2026-09-29T10:58:50Z</time>
    <name>KL69</name>
    <cmt>Palappetty 62nmi 320T d43-48m</cmt>
    <desc>KERALA / Palappetty. 62.5 nmi at 320 deg true from home port. Depth 43-48 m. Valid until 2026-09-30.</desc>
    <sym>Fish</sym>
    <type>PFZ</type>
  </wpt>
  <wpt lat="8.886389" lon="76.215556">
    <time>2026-09-29T10:58:50Z</time>
    <name>KL113</name>
    <cmt>Vettuthura 63nmi 182T d53-58m</cmt>
    <desc>KERALA / Vettuthura. 62.8 nmi at 182 deg true from home port. Depth 53-58 m. Valid until 2026-09-30.</desc>
    <sym>Fish</sym>
    <type>PFZ</type>
  </wpt>
  <wpt lat="10.779444" lon="75.620833">
    <time>2026-09-29T10:58:50Z</time>
    <name>KL67</name>
    <cmt>Purattur 63nmi 323T d29-34m</cmt>
    <desc>KERALA / Purattur. 63.0 nmi at 323 deg true from home port. Depth 29-34 m. Valid until 2026-09-30.</desc>
    <sym>Fish</sym>
    <type>PFZ</type>
  </wpt>
  <wpt lat="10.807500" lon="75.630278">
    <time>2026-09-29T10:58:50Z</time>
    <name>KL66</name>
    <cmt>Ponnani 64nmi 324T d26-31m</cmt>
    <desc>KERALA / Ponnani. 64.0 nmi at 324 deg true from home port. Depth 26-31 m. Valid until 2026-09-30.</desc>
    <sym>Fish</sym>
    <type>PFZ</type>
  </wpt>
  <wpt lat="8.845000" lon="76.242500">
    <time>2026-09-29T10:58:50Z</time>
    <name>KL114</name>
    <cmt>Neendakara 65nmi 181T d49-54m</cmt>
    <desc>KERALA / Neendakara. 65.2 nmi at 181 deg true from home port. Depth 49-54 m. Valid until 2026-09-30.</desc>
    <sym>Fish</sym>
    <type>PFZ</type>
  </wpt>
  <wpt lat="10.836667" lon="75.624167">
    <time>2026-09-29T10:58:50Z</time>
    <name>KL65</name>
    <cmt>Koottayi 66nmi 325T d40-45m</cmt>
    <desc>KERALA / Koottayi. 65.6 nmi at 325 deg true from home port. Depth 40-45 m. Valid until 2026-09-30.</desc>
    <sym>Fish</sym>
    <type>PFZ</type>
  </wpt>
  <wpt lat="10.865556" lon="75.616389">
    <time>2026-09-29T10:58:50Z</time>
    <name>KL64</name>
    <cmt>Vakkad 67nmi 326T d39-44m</cmt>
    <desc>KERALA / Vakkad. 67.3 nmi at 326 deg true from home port. Depth 39-44 m. Valid until 2026-09-30.</desc>
    <sym>Fish</sym>
    <type>PFZ</type>
  </wpt>
  <wpt lat="8.798056" lon="76.257778">
    <time>2026-09-29T10:58:50Z</time>
    <name>KL115</name>
    <cmt>Thankassery F.H. 68nmi 180T d52-57m</cmt>
    <desc>KERALA / Thankassery F.H.. 68.0 nmi at 180 deg true from home port. Depth 52-57 m. Valid until 2026-09-30.</desc>
    <sym>Fish</sym>
    <type>PFZ</type>
  </wpt>
  <wpt lat="10.895556" lon="75.614444">
    <time>2026-09-29T10:58:50Z</time>
    <name>KL63</name>
    <cmt>Paravannangadi 69nmi 326T d37-42m</cmt>
    <desc>KERALA / Paravannangadi. 68.8 nmi at 326 deg true from home port. Depth 37-42 m. Valid until 2026-09-30.</desc>
    <sym>Fish</sym>
    <type>PFZ</type>
  </wpt>
  <wpt lat="10.925278" lon="75.616667">
    <time>2026-09-29T10:58:50Z</time>
    <name>KL62</name>
    <cmt>Parapanangadi 70nmi 327T d34-39m</cmt>
    <desc>KERALA / Parapanangadi. 70.2 nmi at 327 deg true from home port. Depth 34-39 m. Valid until 2026-09-30.</desc>
    <sym>Fish</sym>
    <type>PFZ</type>
  </wpt>
  <wpt lat="8.748889" lon="76.261667">
    <time>2026-09-29T10:58:50Z</time>
    <name>KL116</name>
    <cmt>QuilonPort 71nmi 180T d60-65m</cmt>
    <desc>KERALA / QuilonPort. 71.0 nmi at 180 deg true from home port. Depth 60-65 m. Valid until 2026-09-30.</desc>
    <sym>Fish</sym>
    <type>PFZ</type>
  </wpt>
  <wpt lat="10.953889" lon="75.625833">
    <time>2026-09-29T10:58:50Z</time>
    <name>KL61</name>
    <cmt>Thanur 71nmi 328T d33-38m</cmt>
    <desc>KERALA / Thanur. 71.4 nmi at 328 deg true from home port. Depth 33-38 m. Valid until 2026-09-30.</desc>
    <sym>Fish</sym>
    <type>PFZ</type>
  </wpt>
  <wpt lat="8.700000" lon="76.254444">
    <time>2026-09-29T10:58:50Z</time>
    <name>KL117</name>
    <cmt>Quilon 74nmi 180T d63-68m</cmt>
    <desc>KERALA / Quilon. 73.9 nmi at 180 deg true from home port. Depth 63-68 m. Valid until 2026-09-30.</desc>
    <sym>Fish</sym>
    <type>PFZ</type>
  </wpt>
  <wpt lat="8.655000" lon="76.234167">
    <time>2026-09-29T10:58:50Z</time>
    <name>KL118</name>
    <cmt>Wadi 77nmi 181T d93-98m</cmt>
    <desc>KERALA / Wadi. 76.6 nmi at 181 deg true from home port. Depth 93-98 m. Valid until 2026-09-30.</desc>
    <sym>Fish</sym>
    <type>PFZ</type>
  </wpt>
  <wpt lat="8.650000" lon="76.189167">
    <time>2026-09-29T10:58:50Z</time>
    <name>KL119</name>
    <cmt>Moothakara 77nmi 183T d163-168m</cmt>
    <desc>KERALA / Moothakara. 77.0 nmi at 183 deg true from home port. Depth 163-168 m. Valid until 2026-09-30.</desc>
    <sym>Fish</sym>
    <type>PFZ</type>
  </wpt>
  <wpt lat="11.081389" lon="75.647222">
    <time>2026-09-29T10:58:50Z</time>
    <name>KL60</name>
    <cmt>Kadalundinagaram 77nmi 332T d25-30m</cmt>
    <desc>KERALA / Kadalundinagaram. 77.4 nmi at 332 deg true from home port. Depth 25-30 m. Valid until 2026-09-30.</desc>
    <sym>Fish</sym>
    <type>PFZ</type>
  </wpt>
  <wpt lat="8.640000" lon="76.142778">
    <time>2026-09-29T10:58:50Z</time>
    <name>KL120</name>
    <cmt>Sakthikulangara 78nmi 185T d397-402m</cmt>
    <desc>KERALA / Sakthikulangara. 77.8 nmi at 185 deg true from home port. Depth 397-402 m. Valid until 2026-09-30.</desc>
    <sym>Fish</sym>
    <type>PFZ</type>
  </wpt>
  <wpt lat="11.105556" lon="75.654722">
    <time>2026-09-29T10:58:50Z</time>
    <name>KL59</name>
    <cmt>Ramanattukara 78nmi 333T d23-28m</cmt>
    <desc>KERALA / Ramanattukara. 78.5 nmi at 333 deg true from home port. Depth 23-28 m. Valid until 2026-09-30.</desc>
    <sym>Fish</sym>
    <type>PFZ</type>
  </wpt>
  <wpt lat="11.124444" lon="75.672222">
    <time>2026-09-29T10:58:50Z</time>
    <name>KL58</name>
    <cmt>Chaliyam 79nmi 334T d22-27m</cmt>
    <desc>KERALA / Chaliyam. 79.0 nmi at 334 deg true from home port. Depth 22-27 m. Valid until 2026-09-30.</desc>
    <sym>Fish</sym>
    <type>PFZ</type>
  </wpt>
  <wpt lat="11.149167" lon="75.676944">
    <time>2026-09-29T10:58:50Z</time>
    <name>KL57</name>
    <cmt>Beypore 80nmi 335T d23-28m</cmt>
    <desc>KERALA / Beypore. 80.2 nmi at 335 deg true from home port. Depth 23-28 m. Valid until 2026-09-30.</desc>
    <sym>Fish</sym>
    <type>PFZ</type>
  </wpt>
  <wpt lat="11.174167" lon="75.671111">
    <time>2026-09-29T10:58:50Z</time>
    <name>KL56</name>
    <cmt>BeyporeFH 82nmi 335T d22-27m</cmt>
    <desc>KERALA / BeyporeFH. 81.7 nmi at 335 deg true from home port. Depth 22-27 m. Valid until 2026-09-30.</desc>
    <sym>Fish</sym>
    <type>PFZ</type>
  </wpt>
  <wpt lat="11.196389" lon="75.658333">
    <time>2026-09-29T10:58:50Z</time>
    <name>KL55</name>
    <cmt>VadakkeKadappuram 83nmi 335T d22-27m</cmt>
    <desc>KERALA / VadakkeKadappuram. 83.2 nmi at 335 deg true from home port. Depth 22-27 m. Valid until 2026-09-30.</desc>
    <sym>Fish</sym>
    <type>PFZ</type>
  </wpt>
  <wpt lat="8.544722" lon="76.359722">
    <time>2026-09-29T10:58:50Z</time>
    <name>KL121</name>
    <cmt>Edaval 83nmi 176T d115-120m</cmt>
    <desc>KERALA / Edaval. 83.4 nmi at 176 deg true from home port. Depth 115-120 m. Valid until 2026-09-30.</desc>
    <sym>Fish</sym>
    <type>PFZ</type>
  </wpt>
  <wpt lat="11.213611" lon="75.639167">
    <time>2026-09-29T10:58:50Z</time>
    <name>KL54</name>
    <cmt>Calicut 85nmi 334T d26-31m</cmt>
    <desc>KERALA / Calicut. 84.6 nmi at 334 deg true from home port. Depth 26-31 m. Valid until 2026-09-30.</desc>
    <sym>Fish</sym>
    <type>PFZ</type>
  </wpt>
  <wpt lat="11.229722" lon="75.619167">
    <time>2026-09-29T10:58:50Z</time>
    <name>KL53</name>
    <cmt>Vellayil 86nmi 334T d28-33m</cmt>
    <desc>KERALA / Vellayil. 86.0 nmi at 334 deg true from home port. Depth 28-33 m. Valid until 2026-09-30.</desc>
    <sym>Fish</sym>
    <type>PFZ</type>
  </wpt>
  <wpt lat="8.496111" lon="76.355556">
    <time>2026-09-29T10:58:50Z</time>
    <name>KL122</name>
    <cmt>Vettoor 86nmi 176T d177-182m</cmt>
    <desc>KERALA / Vettoor. 86.2 nmi at 176 deg true from home port. Depth 177-182 m. Valid until 2026-09-30.</desc>
    <sym>Fish</sym>
    <type>PFZ</type>
  </wpt>
  <wpt lat="11.245278" lon="75.598889">
    <time>2026-09-29T10:58:50Z</time>
    <name>KL52</name>
    <cmt>Kunduparabu 87nmi 334T d33-38m</cmt>
    <desc>KERALA / Kunduparabu. 87.4 nmi at 334 deg true from home port. Depth 33-38 m. Valid until 2026-09-30.</desc>
    <sym>Fish</sym>
    <type>PFZ</type>
  </wpt>
  <wpt lat="11.251667" lon="75.574444">
    <time>2026-09-29T10:58:50Z</time>
    <name>KL51</name>
    <cmt>PuthiyappaFH 88nmi 333T d35-40m</cmt>
    <desc>KERALA / PuthiyappaFH. 88.4 nmi at 333 deg true from home port. Depth 35-40 m. Valid until 2026-09-30.</desc>
    <sym>Fish</sym>
    <type>PFZ</type>
  </wpt>
  <wpt lat="8.449722" lon="76.368889">
    <time>2026-09-29T10:58:50Z</time>
    <name>KL123</name>
    <cmt>Chilakkoor 89nmi 176T d351-356m</cmt>
    <desc>KERALA / Chilakkoor. 89.1 nmi at 176 deg true from home port. Depth 351-356 m. Valid until 2026-09-30.</desc>
    <sym>Fish</sym>
    <type>PFZ</type>
  </wpt>
  <wpt lat="8.409722" lon="76.396667">
    <time>2026-09-29T10:58:50Z</time>
    <name>KL124</name>
    <cmt>Mampally 92nmi 175T d430-435m</cmt>
    <desc>KERALA / Mampally. 91.6 nmi at 175 deg true from home port. Depth 430-435 m. Valid until 2026-09-30.</desc>
    <sym>Fish</sym>
    <type>PFZ</type>
  </wpt>
  <wpt lat="8.362778" lon="76.407222">
    <time>2026-09-29T10:58:50Z</time>
    <name>KL125</name>
    <cmt>Poothura 94nmi 175T d450-455m</cmt>
    <desc>KERALA / Poothura. 94.4 nmi at 175 deg true from home port. Depth 450-455 m. Valid until 2026-09-30.</desc>
    <sym>Fish</sym>
    <type>PFZ</type>
  </wpt>
  <wpt lat="8.314167" lon="76.403333">
    <time>2026-09-29T10:58:50Z</time>
    <name>KL126</name>
    <cmt>Perumathura 97nmi 175T d595-600m</cmt>
    <desc>KERALA / Perumathura. 97.3 nmi at 175 deg true from home port. Depth 595-600 m. Valid until 2026-09-30.</desc>
    <sym>Fish</sym>
    <type>PFZ</type>
  </wpt>
  <wpt lat="8.265278" lon="76.404722">
    <time>2026-09-29T10:58:50Z</time>
    <name>KL127</name>
    <cmt>Puthukurichi 100nmi 175T d729-734m</cmt>
    <desc>KERALA / Puthukurichi. 100.2 nmi at 175 deg true from home port. Depth 729-734 m. Valid until 2026-09-30.</desc>
    <sym>Fish</sym>
    <type>PFZ</type>
  </wpt>
  <wpt lat="8.218611" lon="76.417500">
    <time>2026-09-29T10:58:50Z</time>
    <name>KL128</name>
    <cmt>St.Andrews 103nmi 175T d827-832m</cmt>
    <desc>KERALA / St.Andrews. 103.0 nmi at 175 deg true from home port. Depth 827-832 m. Valid until 2026-09-30.</desc>
    <sym>Fish</sym>
    <type>PFZ</type>
  </wpt>
  <wpt lat="11.322222" lon="75.220000">
    <time>2026-09-29T10:58:50Z</time>
    <name>KL50</name>
    <cmt>Poilkavu 103nmi 324T d56-61m</cmt>
    <desc>KERALA / Poilkavu. 103.1 nmi at 324 deg true from home port. Depth 56-61 m. Valid until 2026-09-30.</desc>
    <sym>Fish</sym>
    <type>PFZ</type>
  </wpt>
  <wpt lat="11.350833" lon="75.217222">
    <time>2026-09-29T10:58:50Z</time>
    <name>KL49</name>
    <cmt>Kollam 105nmi 324T d52-57m</cmt>
    <desc>KERALA / Kollam. 104.6 nmi at 324 deg true from home port. Depth 52-57 m. Valid until 2026-09-30.</desc>
    <sym>Fish</sym>
    <type>PFZ</type>
  </wpt>
  <wpt lat="8.183611" lon="76.451111">
    <time>2026-09-29T10:58:50Z</time>
    <name>KL129</name>
    <cmt>Valiaveli 105nmi 174T d826-831m</cmt>
    <desc>KERALA / Valiaveli. 105.3 nmi at 174 deg true from home port. Depth 826-831 m. Valid until 2026-09-30.</desc>
    <sym>Fish</sym>
    <type>PFZ</type>
  </wpt>
  <wpt lat="11.374167" lon="75.200278">
    <time>2026-09-29T10:58:50Z</time>
    <name>KL48</name>
    <cmt>Quilandy/Koloth(Defunct) 106nmi 324T d36</cmt>
    <desc>KERALA / Quilandy/Koloth(Defunct). 106.3 nmi at 324 deg true from home port. Depth 36-41 m. Valid until 2026-09-30.</desc>
    <sym>Fish</sym>
    <type>PFZ</type>
  </wpt>
  <wpt lat="8.165833" lon="76.496111">
    <time>2026-09-29T10:58:50Z</time>
    <name>KL130</name>
    <cmt>Vell 107nmi 172T d778-783m</cmt>
    <desc>KERALA / Vell. 106.7 nmi at 172 deg true from home port. Depth 778-783 m. Valid until 2026-09-30.</desc>
    <sym>Fish</sym>
    <type>PFZ</type>
  </wpt>
  <wpt lat="11.395000" lon="75.180000">
    <time>2026-09-29T10:58:50Z</time>
    <name>KL47</name>
    <cmt>Kadalur Pt 108nmi 324T d35-40m</cmt>
    <desc>KERALA / Kadalur Pt. 108.0 nmi at 324 deg true from home port. Depth 35-40 m. Valid until 2026-09-30.</desc>
    <sym>Fish</sym>
    <type>PFZ</type>
  </wpt>
  <wpt lat="11.409167" lon="75.154722">
    <time>2026-09-29T10:58:50Z</time>
    <name>KL46</name>
    <cmt>Thikkodi(Kodikkal) 110nmi 324T d61-66m</cmt>
    <desc>KERALA / Thikkodi(Kodikkal). 109.6 nmi at 324 deg true from home port. Depth 61-66 m. Valid until 2026-09-30.</desc>
    <sym>Fish</sym>
    <type>PFZ</type>
  </wpt>
  <wpt lat="11.416667" lon="75.126667">
    <time>2026-09-29T10:58:50Z</time>
    <name>KL45</name>
    <cmt>Moodady 111nmi 323T d80-85m</cmt>
    <desc>KERALA / Moodady. 110.9 nmi at 323 deg true from home port. Depth 80-85 m. Valid until 2026-09-30.</desc>
    <sym>Fish</sym>
    <type>PFZ</type>
  </wpt>
  <wpt lat="11.433889" lon="75.103333">
    <time>2026-09-29T10:58:50Z</time>
    <name>KL44</name>
    <cmt>Tikkoti 113nmi 323T d70-75m</cmt>
    <desc>KERALA / Tikkoti. 112.6 nmi at 323 deg true from home port. Depth 70-75 m. Valid until 2026-09-30.</desc>
    <sym>Fish</sym>
    <type>PFZ</type>
  </wpt>
  <wpt lat="8.070556" lon="76.676944">
    <time>2026-09-29T10:58:50Z</time>
    <name>KL131</name>
    <cmt>VizhinjamNorth 114nmi 168T d274-279m</cmt>
    <desc>KERALA / VizhinjamNorth. 114.2 nmi at 168 deg true from home port. Depth 274-279 m. Valid until 2026-09-30.</desc>
    <sym>Fish</sym>
    <type>PFZ</type>
  </wpt>
  <wpt lat="11.456944" lon="75.085833">
    <time>2026-09-29T10:58:50Z</time>
    <name>KL43</name>
    <cmt>Kottakkal 114nmi 323T d50-55m</cmt>
    <desc>KERALA / Kottakkal. 114.3 nmi at 323 deg true from home port. Depth 50-55 m. Valid until 2026-09-30.</desc>
    <sym>Fish</sym>
    <type>PFZ</type>
  </wpt>
  <wpt lat="11.483889" lon="75.075556">
    <time>2026-09-29T10:58:50Z</time>
    <name>KL42</name>
    <cmt>Kizhur 116nmi 323T d39-44m</cmt>
    <desc>KERALA / Kizhur. 115.9 nmi at 323 deg true from home port. Depth 39-44 m. Valid until 2026-09-30.</desc>
    <sym>Fish</sym>
    <type>PFZ</type>
  </wpt>
  <wpt lat="8.044167" lon="76.706111">
    <time>2026-09-29T10:58:50Z</time>
    <name>KL132</name>
    <cmt>Vilinjam 116nmi 167T d207-212m</cmt>
    <desc>KERALA / Vilinjam. 116.1 nmi at 167 deg true from home port. Depth 207-212 m. Valid until 2026-09-30.</desc>
    <sym>Fish</sym>
    <type>PFZ</type>
  </wpt>
  <wpt lat="8.033889" lon="76.744444">
    <time>2026-09-29T10:58:50Z</time>
    <name>KL134</name>
    <cmt>Mariyanadu 117nmi 166T d96-101m</cmt>
    <desc>KERALA / Mariyanadu. 117.2 nmi at 166 deg true from home port. Depth 96-101 m. Valid until 2026-09-30.</desc>
    <sym>Fish</sym>
    <type>PFZ</type>
  </wpt>
  <wpt lat="11.512778" lon="75.073611">
    <time>2026-09-29T10:58:50Z</time>
    <name>KL41</name>
    <cmt>Puduppanam 117nmi 323T d43-48m</cmt>
    <desc>KERALA / Puduppanam. 117.4 nmi at 323 deg true from home port. Depth 43-48 m. Valid until 2026-09-30.</desc>
    <sym>Fish</sym>
    <type>PFZ</type>
  </wpt>
  <wpt lat="8.036667" lon="76.784444">
    <time>2026-09-29T10:58:50Z</time>
    <name>KL133</name>
    <cmt>Adimalathura 118nmi 165T d86-91m</cmt>
    <desc>KERALA / Adimalathura. 117.7 nmi at 165 deg true from home port. Depth 86-91 m. Valid until 2026-09-30.</desc>
    <sym>Fish</sym>
    <type>PFZ</type>
  </wpt>
  <wpt lat="8.027500" lon="76.822500">
    <time>2026-09-29T10:58:50Z</time>
    <name>KL135</name>
    <cmt>Poovar 119nmi 164T d78-83m</cmt>
    <desc>KERALA / Poovar. 118.8 nmi at 164 deg true from home port. Depth 78-83 m. Valid until 2026-09-30.</desc>
    <sym>Fish</sym>
    <type>PFZ</type>
  </wpt>
  <wpt lat="8.000556" lon="76.851111">
    <time>2026-09-29T10:58:50Z</time>
    <name>KL136</name>
    <cmt>Kochuthura 121nmi 163T d76-81m</cmt>
    <desc>KERALA / Kochuthura. 120.8 nmi at 163 deg true from home port. Depth 76-81 m. Valid until 2026-09-30.</desc>
    <sym>Fish</sym>
    <type>PFZ</type>
  </wpt>
  <wpt lat="11.625278" lon="75.069722">
    <time>2026-09-29T10:58:50Z</time>
    <name>KL40</name>
    <cmt>Badagara 123nmi 325T d54-59m</cmt>
    <desc>KERALA / Badagara. 122.9 nmi at 325 deg true from home port. Depth 54-59 m. Valid until 2026-09-30.</desc>
    <sym>Fish</sym>
    <type>PFZ</type>
  </wpt>
  <wpt lat="7.962222" lon="76.862778">
    <time>2026-09-29T10:58:50Z</time>
    <name>KL137</name>
    <cmt>Puthiathura(Chinnamarthandanthura) 123nm</cmt>
    <desc>KERALA / Puthiathura(Chinnamarthandanthura). 123.2 nmi at 163 deg true from home port. Depth 85-90 m. Valid until 2026-09-30.</desc>
    <sym>Fish</sym>
    <type>PFZ</type>
  </wpt>
  <wpt lat="11.649167" lon="75.068611">
    <time>2026-09-29T10:58:50Z</time>
    <name>KL39</name>
    <cmt>Nalliyankara 124nmi 326T d50-55m</cmt>
    <desc>KERALA / Nalliyankara. 124.2 nmi at 326 deg true from home port. Depth 50-55 m. Valid until 2026-09-30.</desc>
    <sym>Fish</sym>
    <type>PFZ</type>
  </wpt>
  <wpt lat="11.673333" lon="75.069722">
    <time>2026-09-29T10:58:50Z</time>
    <name>KL38</name>
    <cmt>Uralungal 125nmi 326T d49-54m</cmt>
    <desc>KERALA / Uralungal. 125.3 nmi at 326 deg true from home port. Depth 49-54 m. Valid until 2026-09-30.</desc>
    <sym>Fish</sym>
    <type>PFZ</type>
  </wpt>
  <wpt lat="7.928611" lon="76.883889">
    <time>2026-09-29T10:58:50Z</time>
    <name>KL138</name>
    <cmt>Karichal 126nmi 163T d81-86m</cmt>
    <desc>KERALA / Karichal. 125.5 nmi at 163 deg true from home port. Depth 81-86 m. Valid until 2026-09-30.</desc>
    <sym>Fish</sym>
    <type>PFZ</type>
  </wpt>
  <wpt lat="11.696944" lon="75.066111">
    <time>2026-09-29T10:58:50Z</time>
    <name>KL37</name>
    <cmt>ChombalaFH 127nmi 326T d61-66m</cmt>
    <desc>KERALA / ChombalaFH. 126.6 nmi at 326 deg true from home port. Depth 61-66 m. Valid until 2026-09-30.</desc>
    <sym>Fish</sym>
    <type>PFZ</type>
  </wpt>
  <wpt lat="7.911667" lon="76.919167">
    <time>2026-09-29T10:58:50Z</time>
    <name>KL140</name>
    <cmt>Puthiathura(Kochupally) 127nmi 162T d75-</cmt>
    <desc>KERALA / Puthiathura(Kochupally). 127.1 nmi at 162 deg true from home port. Depth 75-80 m. Valid until 2026-09-30.</desc>
    <sym>Fish</sym>
    <type>PFZ</type>
  </wpt>
  <wpt lat="7.916944" lon="76.958889">
    <time>2026-09-29T10:58:50Z</time>
    <name>KL139</name>
    <cmt>Vizhinjam&amp;Kottapuram 128nmi 161T d63-68m</cmt>
    <desc>KERALA / Vizhinjam&amp;Kottapuram. 127.6 nmi at 161 deg true from home port. Depth 63-68 m. Valid until 2026-09-30.</desc>
    <sym>Fish</sym>
    <type>PFZ</type>
  </wpt>
  <wpt lat="11.717222" lon="75.053889">
    <time>2026-09-29T10:58:50Z</time>
    <name>KL36</name>
    <cmt>NewMahe 128nmi 326T d62-67m</cmt>
    <desc>KERALA / NewMahe. 128.0 nmi at 326 deg true from home port. Depth 62-67 m. Valid until 2026-09-30.</desc>
    <sym>Fish</sym>
    <type>PFZ</type>
  </wpt>
  <wpt lat="11.730278" lon="75.033611">
    <time>2026-09-29T10:58:50Z</time>
    <name>KL35</name>
    <cmt>Tellicherry 129nmi 326T d65-70m</cmt>
    <desc>KERALA / Tellicherry. 129.3 nmi at 326 deg true from home port. Depth 65-70 m. Valid until 2026-09-30.</desc>
    <sym>Fish</sym>
    <type>PFZ</type>
  </wpt>
  <wpt lat="11.739167" lon="75.011111">
    <time>2026-09-29T10:58:50Z</time>
    <name>KL34</name>
    <cmt>Muzhuppilangad 130nmi 326T d54-59m</cmt>
    <desc>KERALA / Muzhuppilangad. 130.5 nmi at 326 deg true from home port. Depth 54-59 m. Valid until 2026-09-30.</desc>
    <sym>Fish</sym>
    <type>PFZ</type>
  </wpt>
  <wpt lat="11.747500" lon="74.988333">
    <time>2026-09-29T10:58:50Z</time>
    <name>KL33</name>
    <cmt>Edakkad 132nmi 325T d54-59m</cmt>
    <desc>KERALA / Edakkad. 131.7 nmi at 325 deg true from home port. Depth 54-59 m. Valid until 2026-09-30.</desc>
    <sym>Fish</sym>
    <type>PFZ</type>
  </wpt>
  <wpt lat="11.759722" lon="74.967778">
    <time>2026-09-29T10:58:50Z</time>
    <name>KL32</name>
    <cmt>AyikkaraFH 133nmi 325T d59-64m</cmt>
    <desc>KERALA / AyikkaraFH. 133.0 nmi at 325 deg true from home port. Depth 59-64 m. Valid until 2026-09-30.</desc>
    <sym>Fish</sym>
    <type>PFZ</type>
  </wpt>
  <wpt lat="11.775278" lon="74.949167">
    <time>2026-09-29T10:58:50Z</time>
    <name>KL31</name>
    <cmt>Valapattanam 134nmi 325T d59-64m</cmt>
    <desc>KERALA / Valapattanam. 134.4 nmi at 325 deg true from home port. Depth 59-64 m. Valid until 2026-09-30.</desc>
    <sym>Fish</sym>
    <type>PFZ</type>
  </wpt>
  <wpt lat="11.844444" lon="74.860556">
    <time>2026-09-29T10:58:50Z</time>
    <name>KL29</name>
    <cmt>Kannur 141nmi 324T d58-63m</cmt>
    <desc>KERALA / Kannur. 140.8 nmi at 324 deg true from home port. Depth 58-63 m. Valid until 2026-09-30.</desc>
    <sym>Fish</sym>
    <type>PFZ</type>
  </wpt>
  <wpt lat="11.845278" lon="74.832222">
    <time>2026-09-29T10:58:50Z</time>
    <name>KL28</name>
    <cmt>Koloth 142nmi 324T d76-81m</cmt>
    <desc>KERALA / Koloth. 141.8 nmi at 324 deg true from home port. Depth 76-81 m. Valid until 2026-09-30.</desc>
    <sym>Fish</sym>
    <type>PFZ</type>
  </wpt>
  <wpt lat="11.841667" lon="74.803611">
    <time>2026-09-29T10:58:50Z</time>
    <name>KL30</name>
    <cmt>AzheecodeSouth 143nmi 323T d92-97m</cmt>
    <desc>KERALA / AzheecodeSouth. 142.6 nmi at 323 deg true from home port. Depth 92-97 m. Valid until 2026-09-30.</desc>
    <sym>Fish</sym>
    <type>PFZ</type>
  </wpt>
  <wpt lat="11.846944" lon="74.775278">
    <time>2026-09-29T10:58:50Z</time>
    <name>KL27</name>
    <cmt>Azheecode 144nmi 323T d85-90m</cmt>
    <desc>KERALA / Azheecode. 143.9 nmi at 323 deg true from home port. Depth 85-90 m. Valid until 2026-09-30.</desc>
    <sym>Fish</sym>
    <type>PFZ</type>
  </wpt>
  <wpt lat="11.858889" lon="74.749167">
    <time>2026-09-29T10:58:50Z</time>
    <name>KL26</name>
    <cmt>Azhikal 145nmi 322T d57-62m</cmt>
    <desc>KERALA / Azhikal. 145.4 nmi at 322 deg true from home port. Depth 57-62 m. Valid until 2026-09-30.</desc>
    <sym>Fish</sym>
    <type>PFZ</type>
  </wpt>
  <wpt lat="11.874722" lon="74.725000">
    <time>2026-09-29T10:58:50Z</time>
    <name>KL25</name>
    <cmt>CheruvathurFH 147nmi 322T d60-65m</cmt>
    <desc>KERALA / CheruvathurFH. 147.0 nmi at 322 deg true from home port. Depth 60-65 m. Valid until 2026-09-30.</desc>
    <sym>Fish</sym>
    <type>PFZ</type>
  </wpt>
  <wpt lat="11.892500" lon="74.702222">
    <time>2026-09-29T10:58:50Z</time>
    <name>KL24</name>
    <cmt>Ettikulam 149nmi 322T d81-86m</cmt>
    <desc>KERALA / Ettikulam. 148.7 nmi at 322 deg true from home port. Depth 81-86 m. Valid until 2026-09-30.</desc>
    <sym>Fish</sym>
    <type>PFZ</type>
  </wpt>
  <wpt lat="11.912500" lon="74.681389">
    <time>2026-09-29T10:58:50Z</time>
    <name>KL23</name>
    <cmt>Kotte Kunnu 150nmi 322T d89-94m</cmt>
    <desc>KERALA / Kotte Kunnu. 150.4 nmi at 322 deg true from home port. Depth 89-94 m. Valid until 2026-09-30.</desc>
    <sym>Fish</sym>
    <type>PFZ</type>
  </wpt>
  <wpt lat="11.934444" lon="74.663056">
    <time>2026-09-29T10:58:50Z</time>
    <name>KL22</name>
    <cmt>Kunnariyam 152nmi 322T d86-91m</cmt>
    <desc>KERALA / Kunnariyam. 152.1 nmi at 322 deg true from home port. Depth 86-91 m. Valid until 2026-09-30.</desc>
    <sym>Fish</sym>
    <type>PFZ</type>
  </wpt>
  <wpt lat="11.958889" lon="74.647222">
    <time>2026-09-29T10:58:50Z</time>
    <name>KL21</name>
    <cmt>Kavvayi 154nmi 322T d85-90m</cmt>
    <desc>KERALA / Kavvayi. 153.8 nmi at 322 deg true from home port. Depth 85-90 m. Valid until 2026-09-30.</desc>
    <sym>Fish</sym>
    <type>PFZ</type>
  </wpt>
  <wpt lat="12.062778" lon="74.636944">
    <time>2026-09-29T10:58:50Z</time>
    <name>KL20</name>
    <cmt>Maniyat 159nmi 323T d91-96m</cmt>
    <desc>KERALA / Maniyat. 159.1 nmi at 323 deg true from home port. Depth 91-96 m. Valid until 2026-09-30.</desc>
    <sym>Fish</sym>
    <type>PFZ</type>
  </wpt>
  <wpt lat="12.084444" lon="74.612500">
    <time>2026-09-29T10:58:50Z</time>
    <name>KL19</name>
    <cmt>BadagaraAzhithala 161nmi 323T d83-88m</cmt>
    <desc>KERALA / BadagaraAzhithala. 161.0 nmi at 323 deg true from home port. Depth 83-88 m. Valid until 2026-09-30.</desc>
    <sym>Fish</sym>
    <type>PFZ</type>
  </wpt>
  <wpt lat="12.115556" lon="74.598056">
    <time>2026-09-29T10:58:50Z</time>
    <name>KL18</name>
    <cmt>Thaikadappuram 163nmi 323T d92-97m</cmt>
    <desc>KERALA / Thaikadappuram. 163.0 nmi at 323 deg true from home port. Depth 92-97 m. Valid until 2026-09-30.</desc>
    <sym>Fish</sym>
    <type>PFZ</type>
  </wpt>
  <wpt lat="12.149167" lon="74.590833">
    <time>2026-09-29T10:58:50Z</time>
    <name>KL17</name>
    <cmt>Nileswaram 165nmi 323T d89-94m</cmt>
    <desc>KERALA / Nileswaram. 164.8 nmi at 323 deg true from home port. Depth 89-94 m. Valid until 2026-09-30.</desc>
    <sym>Fish</sym>
    <type>PFZ</type>
  </wpt>
  <wpt lat="12.176944" lon="74.571667">
    <time>2026-09-29T10:58:50Z</time>
    <name>KL16</name>
    <cmt>Hosdrug 167nmi 324T d83-88m</cmt>
    <desc>KERALA / Hosdrug. 166.8 nmi at 324 deg true from home port. Depth 83-88 m. Valid until 2026-09-30.</desc>
    <sym>Fish</sym>
    <type>PFZ</type>
  </wpt>
  <wpt lat="12.194167" lon="74.541944">
    <time>2026-09-29T10:58:50Z</time>
    <name>KL15</name>
    <cmt>Ajanoor-N-Bella 169nmi 323T d95-100m</cmt>
    <desc>KERALA / Ajanoor-N-Bella. 168.7 nmi at 323 deg true from home port. Depth 95-100 m. Valid until 2026-09-30.</desc>
    <sym>Fish</sym>
    <type>PFZ</type>
  </wpt>
  <wpt lat="12.218056" lon="74.518056">
    <time>2026-09-29T10:58:50Z</time>
    <name>KL14</name>
    <cmt>Chittari 171nmi 323T d101-106m</cmt>
    <desc>KERALA / Chittari. 170.7 nmi at 323 deg true from home port. Depth 101-106 m. Valid until 2026-09-30.</desc>
    <sym>Fish</sym>
    <type>PFZ</type>
  </wpt>
  <wpt lat="12.250278" lon="74.506667">
    <time>2026-09-29T10:58:50Z</time>
    <name>KL13</name>
    <cmt>Pallikere 173nmi 323T d105-110m</cmt>
    <desc>KERALA / Pallikere. 172.6 nmi at 323 deg true from home port. Depth 105-110 m. Valid until 2026-09-30.</desc>
    <sym>Fish</sym>
    <type>PFZ</type>
  </wpt>
  <wpt lat="12.284167" lon="74.510278">
    <time>2026-09-29T10:58:50Z</time>
    <name>KL12</name>
    <cmt>Bekal 174nmi 324T d89-94m</cmt>
    <desc>KERALA / Bekal. 174.1 nmi at 324 deg true from home port. Depth 89-94 m. Valid until 2026-09-30.</desc>
    <sym>Fish</sym>
    <type>PFZ</type>
  </wpt>
  <wpt lat="12.314444" lon="74.526667">
    <time>2026-09-29T10:58:50Z</time>
    <name>KL11</name>
    <cmt>Kotikulam 175nmi 324T d61-66m</cmt>
    <desc>KERALA / Kotikulam. 175.0 nmi at 324 deg true from home port. Depth 61-66 m. Valid until 2026-09-30.</desc>
    <sym>Fish</sym>
    <type>PFZ</type>
  </wpt>
  <wpt lat="12.439722" lon="74.507222">
    <time>2026-09-29T10:58:50Z</time>
    <name>KL10</name>
    <cmt>ThalangarJetty 182nmi 326T d79-84m</cmt>
    <desc>KERALA / ThalangarJetty. 181.8 nmi at 326 deg true from home port. Depth 79-84 m. Valid until 2026-09-30.</desc>
    <sym>Fish</sym>
    <type>PFZ</type>
  </wpt>
  <wpt lat="12.471389" lon="74.500000">
    <time>2026-09-29T10:58:50Z</time>
    <name>KL09</name>
    <cmt>Kasaragod 184nmi 326T d71-76m</cmt>
    <desc>KERALA / Kasaragod. 183.6 nmi at 326 deg true from home port. Depth 71-76 m. Valid until 2026-09-30.</desc>
    <sym>Fish</sym>
    <type>PFZ</type>
  </wpt>
  <wpt lat="12.503611" lon="74.500833">
    <time>2026-09-29T10:58:50Z</time>
    <name>KL08</name>
    <cmt>Adakathbail 185nmi 326T d65-70m</cmt>
    <desc>KERALA / Adakathbail. 185.1 nmi at 326 deg true from home port. Depth 65-70 m. Valid until 2026-09-30.</desc>
    <sym>Fish</sym>
    <type>PFZ</type>
  </wpt>
  <wpt lat="12.535833" lon="74.503056">
    <time>2026-09-29T10:58:50Z</time>
    <name>KL07</name>
    <cmt>Mogral 187nmi 326T d56-61m</cmt>
    <desc>KERALA / Mogral. 186.6 nmi at 326 deg true from home port. Depth 56-61 m. Valid until 2026-09-30.</desc>
    <sym>Fish</sym>
    <type>PFZ</type>
  </wpt>
  <wpt lat="12.568056" lon="74.500000">
    <time>2026-09-29T10:58:50Z</time>
    <name>KL06</name>
    <cmt>Koipadi 188nmi 327T d55-60m</cmt>
    <desc>KERALA / Koipadi. 188.3 nmi at 327 deg true from home port. Depth 55-60 m. Valid until 2026-09-30.</desc>
    <sym>Fish</sym>
    <type>PFZ</type>
  </wpt>
  <wpt lat="12.598611" lon="74.489722">
    <time>2026-09-29T10:58:50Z</time>
    <name>KL05</name>
    <cmt>Kumbla 190nmi 327T d56-61m</cmt>
    <desc>KERALA / Kumbla. 190.2 nmi at 327 deg true from home port. Depth 56-61 m. Valid until 2026-09-30.</desc>
    <sym>Fish</sym>
    <type>PFZ</type>
  </wpt>
  <wpt lat="12.624167" lon="74.470278">
    <time>2026-09-29T10:58:50Z</time>
    <name>KL04</name>
    <cmt>Arikkadi 192nmi 327T d58-63m</cmt>
    <desc>KERALA / Arikkadi. 192.1 nmi at 327 deg true from home port. Depth 58-63 m. Valid until 2026-09-30.</desc>
    <sym>Fish</sym>
    <type>PFZ</type>
  </wpt>
  <wpt lat="12.648333" lon="74.448889">
    <time>2026-09-29T10:58:50Z</time>
    <name>KL03</name>
    <cmt>Uppala 194nmi 327T d63-68m</cmt>
    <desc>KERALA / Uppala. 194.0 nmi at 327 deg true from home port. Depth 63-68 m. Valid until 2026-09-30.</desc>
    <sym>Fish</sym>
    <type>PFZ</type>
  </wpt>
  <wpt lat="12.678056" lon="74.436944">
    <time>2026-09-29T10:58:50Z</time>
    <name>KL02</name>
    <cmt>Manjeshwara 196nmi 327T d69-74m</cmt>
    <desc>KERALA / Manjeshwara. 195.9 nmi at 327 deg true from home port. Depth 69-74 m. Valid until 2026-09-30.</desc>
    <sym>Fish</sym>
    <type>PFZ</type>
  </wpt>
  <wpt lat="12.710278" lon="74.437500">
    <time>2026-09-29T10:58:50Z</time>
    <name>KL01</name>
    <cmt>Kunzhathur 198nmi 327T d56-61m</cmt>
    <desc>KERALA / Kunzhathur. 197.5 nmi at 327 deg true from home port. Depth 56-61 m. Valid until 2026-09-30.</desc>
    <sym>Fish</sym>
    <type>PFZ</type>
  </wpt>
  <wpt lat="13.033611" lon="74.407222">
    <time>2026-09-29T10:58:50Z</time>
    <name>KA24</name>
    <cmt>Hosabettu-Udaivar 215nmi 330T d48-53m</cmt>
    <desc>KARNATAKA / Hosabettu-Udaivar. 214.8 nmi at 330 deg true from home port. Depth 48-53 m. Valid until 2026-09-30.</desc>
    <sym>Fish</sym>
    <type>PFZ</type>
  </wpt>
  <wpt lat="13.109444" lon="74.448056">
    <time>2026-09-29T10:58:50Z</time>
    <name>KA23</name>
    <cmt>Udiyavara 218nmi 331T d43-48m</cmt>
    <desc>KARNATAKA / Udiyavara. 217.5 nmi at 331 deg true from home port. Depth 43-48 m. Valid until 2026-09-30.</desc>
    <sym>Fish</sym>
    <type>PFZ</type>
  </wpt>
  <wpt lat="13.191667" lon="74.472222">
    <time>2026-09-29T10:58:50Z</time>
    <name>KA22</name>
    <cmt>Kapu 221nmi 332T d38-43m</cmt>
    <desc>KARNATAKA / Kapu. 221.1 nmi at 332 deg true from home port. Depth 38-43 m. Valid until 2026-09-30.</desc>
    <sym>Fish</sym>
    <type>PFZ</type>
  </wpt>
  <wpt lat="13.265556" lon="74.425278">
    <time>2026-09-29T10:58:50Z</time>
    <name>KA21</name>
    <cmt>Malpe 226nmi 332T d38-43m</cmt>
    <desc>KARNATAKA / Malpe. 226.3 nmi at 332 deg true from home port. Depth 38-43 m. Valid until 2026-09-30.</desc>
    <sym>Fish</sym>
    <type>PFZ</type>
  </wpt>
  <wpt lat="13.402222" lon="74.259167">
    <time>2026-09-29T10:58:50Z</time>
    <name>KA20</name>
    <cmt>Hangarkatta 238nmi 330T d43-48m</cmt>
    <desc>KARNATAKA / Hangarkatta. 238.2 nmi at 330 deg true from home port. Depth 43-48 m. Valid until 2026-09-30.</desc>
    <sym>Fish</sym>
    <type>PFZ</type>
  </wpt>
  <wpt lat="13.453889" lon="74.235556">
    <time>2026-09-29T10:58:50Z</time>
    <name>KA19</name>
    <cmt>Coondapoor (gangoli) 242nmi 331T d42-47m</cmt>
    <desc>KARNATAKA / Coondapoor (gangoli). 241.5 nmi at 331 deg true from home port. Depth 42-47 m. Valid until 2026-09-30.</desc>
    <sym>Fish</sym>
    <type>PFZ</type>
  </wpt>
  <wpt lat="13.484167" lon="74.187500">
    <time>2026-09-29T10:58:50Z</time>
    <name>KA18</name>
    <cmt>Kota 244nmi 330T d40-45m</cmt>
    <desc>KARNATAKA / Kota. 244.5 nmi at 330 deg true from home port. Depth 40-45 m. Valid until 2026-09-30.</desc>
    <sym>Fish</sym>
    <type>PFZ</type>
  </wpt>
  <wpt lat="13.534167" lon="74.162500">
    <time>2026-09-29T10:58:50Z</time>
    <name>KA17</name>
    <cmt>Gangoli 248nmi 330T d46-51m</cmt>
    <desc>KARNATAKA / Gangoli. 247.8 nmi at 330 deg true from home port. Depth 46-51 m. Valid until 2026-09-30.</desc>
    <sym>Fish</sym>
    <type>PFZ</type>
  </wpt>
  <wpt lat="13.695833" lon="74.130556">
    <time>2026-09-29T10:58:50Z</time>
    <name>KA16</name>
    <cmt>Honavar 257nmi 331T d49-54m</cmt>
    <desc>KARNATAKA / Honavar. 257.1 nmi at 331 deg true from home port. Depth 49-54 m. Valid until 2026-09-30.</desc>
    <sym>Fish</sym>
    <type>PFZ</type>
  </wpt>
  <wpt lat="13.746111" lon="74.147222">
    <time>2026-09-29T10:58:50Z</time>
    <name>KA15</name>
    <cmt>Navunda 259nmi 332T d51-56m</cmt>
    <desc>KARNATAKA / Navunda. 259.3 nmi at 332 deg true from home port. Depth 51-56 m. Valid until 2026-09-30.</desc>
    <sym>Fish</sym>
    <type>PFZ</type>
  </wpt>
  <wpt lat="13.796389" lon="74.163611">
    <time>2026-09-29T10:58:50Z</time>
    <name>KA14</name>
    <cmt>Baindur 262nmi 332T d44-49m</cmt>
    <desc>KARNATAKA / Baindur. 261.5 nmi at 332 deg true from home port. Depth 44-49 m. Valid until 2026-09-30.</desc>
    <sym>Fish</sym>
    <type>PFZ</type>
  </wpt>
  <wpt lat="13.849167" lon="74.156389">
    <time>2026-09-29T10:58:50Z</time>
    <name>KA13</name>
    <cmt>Bhatkal 264nmi 332T d45-50m</cmt>
    <desc>KARNATAKA / Bhatkal. 264.4 nmi at 332 deg true from home port. Depth 45-50 m. Valid until 2026-09-30.</desc>
    <sym>Fish</sym>
    <type>PFZ</type>
  </wpt>
  <wpt lat="13.990000" lon="74.105833">
    <time>2026-09-29T10:58:50Z</time>
    <name>KA12</name>
    <cmt>Shirali 273nmi 333T d49-54m</cmt>
    <desc>KARNATAKA / Shirali. 273.2 nmi at 333 deg true from home port. Depth 49-54 m. Valid until 2026-09-30.</desc>
    <sym>Fish</sym>
    <type>PFZ</type>
  </wpt>
  <wpt lat="14.042222" lon="74.101111">
    <time>2026-09-29T10:58:50Z</time>
    <name>KA11</name>
    <cmt>Mavalli 276nmi 333T d48-53m</cmt>
    <desc>KARNATAKA / Mavalli. 276.1 nmi at 333 deg true from home port. Depth 48-53 m. Valid until 2026-09-30.</desc>
    <sym>Fish</sym>
    <type>PFZ</type>
  </wpt>
  <wpt lat="14.090000" lon="74.121111">
    <time>2026-09-29T10:58:50Z</time>
    <name>KA10</name>
    <cmt>Navayatkere 278nmi 333T d50-55m</cmt>
    <desc>KARNATAKA / Navayatkere. 278.1 nmi at 333 deg true from home port. Depth 50-55 m. Valid until 2026-09-30.</desc>
    <sym>Fish</sym>
    <type>PFZ</type>
  </wpt>
  <wpt lat="14.140000" lon="74.133889">
    <time>2026-09-29T10:58:50Z</time>
    <name>KA09</name>
    <cmt>Kasarkod 280nmi 334T d48-53m</cmt>
    <desc>KARNATAKA / Kasarkod. 280.5 nmi at 334 deg true from home port. Depth 48-53 m. Valid until 2026-09-30.</desc>
    <sym>Fish</sym>
    <type>PFZ</type>
  </wpt>
  <wpt lat="14.269167" lon="74.055278">
    <time>2026-09-29T10:58:50Z</time>
    <name>KA08</name>
    <cmt>Karki 289nmi 334T d46-51m</cmt>
    <desc>KARNATAKA / Karki. 289.4 nmi at 334 deg true from home port. Depth 46-51 m. Valid until 2026-09-30.</desc>
    <sym>Fish</sym>
    <type>PFZ</type>
  </wpt>
  <wpt lat="14.327222" lon="74.053611">
    <time>2026-09-29T10:58:50Z</time>
    <name>KA07</name>
    <cmt>Kumta Pt 293nmi 334T d49-54m</cmt>
    <desc>KARNATAKA / Kumta Pt. 292.6 nmi at 334 deg true from home port. Depth 49-54 m. Valid until 2026-09-30.</desc>
    <sym>Fish</sym>
    <type>PFZ</type>
  </wpt>
  <wpt lat="14.385000" lon="74.053333">
    <time>2026-09-29T10:58:50Z</time>
    <name>KA06</name>
    <cmt>Tadri 296nmi 334T d52-57m</cmt>
    <desc>KARNATAKA / Tadri. 295.7 nmi at 334 deg true from home port. Depth 52-57 m. Valid until 2026-09-30.</desc>
    <sym>Fish</sym>
    <type>PFZ</type>
  </wpt>
  <wpt lat="14.426389" lon="74.013333">
    <time>2026-09-29T10:58:50Z</time>
    <name>KA05</name>
    <cmt>Gangavali 299nmi 334T d43-48m</cmt>
    <desc>KARNATAKA / Gangavali. 298.9 nmi at 334 deg true from home port. Depth 43-48 m. Valid until 2026-09-30.</desc>
    <sym>Fish</sym>
    <type>PFZ</type>
  </wpt>
  <wpt lat="14.574444" lon="73.908333">
    <time>2026-09-29T10:58:50Z</time>
    <name>KA04</name>
    <cmt>Belekeri 310nmi 334T d46-51m</cmt>
    <desc>KARNATAKA / Belekeri. 309.6 nmi at 334 deg true from home port. Depth 46-51 m. Valid until 2026-09-30.</desc>
    <sym>Fish</sym>
    <type>PFZ</type>
  </wpt>
  <wpt lat="14.626389" lon="73.887500">
    <time>2026-09-29T10:58:50Z</time>
    <name>KA03</name>
    <cmt>Majali 313nmi 334T d48-53m</cmt>
    <desc>KARNATAKA / Majali. 312.9 nmi at 334 deg true from home port. Depth 48-53 m. Valid until 2026-09-30.</desc>
    <sym>Fish</sym>
    <type>PFZ</type>
  </wpt>
  <wpt lat="14.684722" lon="73.887778">
    <time>2026-09-29T10:58:50Z</time>
    <name>KA02</name>
    <cmt>Sadasguvgarg 316nmi 334T d42-47m</cmt>
    <desc>KARNATAKA / Sadasguvgarg. 316.0 nmi at 334 deg true from home port. Depth 42-47 m. Valid until 2026-09-30.</desc>
    <sym>Fish</sym>
    <type>PFZ</type>
  </wpt>
  <wpt lat="14.739167" lon="73.869444">
    <time>2026-09-29T10:58:50Z</time>
    <name>KA01</name>
    <cmt>Karwar 319nmi 334T d42-47m</cmt>
    <desc>KARNATAKA / Karwar. 319.4 nmi at 334 deg true from home port. Depth 42-47 m. Valid until 2026-09-30.</desc>
    <sym>Fish</sym>
    <type>PFZ</type>
  </wpt>
</gpx>
